{"type":"FeatureCollection","features":[{"type":"Feature","properties":{"GID_3":"CHL.14.1.1_1","GID_0":"CHL","COUNTRY":"Chile","GID_1":"CHL.14_1","NAME_1":"SantiagoMetropolitan","NL_NAME_1":"NA","GID_2":"CHL.14.1_1","NAME_2":"Chacabuco","NL_NAME_2":"NA","NAME_3":"Colina","VARNAME_3":"NA","NL_NAME_3":"NA","TYPE_3":"Comuna","ENGTYPE_3":"Municipality","CC_3":"NA","HASC_3":"NA"},"geometry":{"type":"MultiPolygon","coordinates":[[[[-70.7188,-33.3246],[-70.7836,-33.1802],[-70.7923,-33.1722],[-70.782,-33.172],[-70.7741,-33.1754],[-70.77,-33.1748],[-70.7643,-33.179],[-70.7565,-33.1796],[-70.7514,-33.1745],[-70.7457,-33.1717],[-70.7444,-33.1692],[-70.7357,-33.1666],[-70.7342,-33.1634],[-70.7349,-33.1604],[-70.7387,-33.1584],[-70.742,-33.1528],[-70.7442,-33.1455],[-70.7529,-33.1416],[-70.755,-33.1383],[-70.7542,-33.1336],[-70.7595,-33.1253],[-70.7542,-33.1174],[-70.7597,-33.1035],[-70.748,-33.08],[-70.7469,-33.0694],[-70.7532,-33.0641],[-70.7626,-33.0597],[-70.7669,-33.0554],[-70.7653,-33.0492],[-70.7612,-33.047],[-70.7595,-33.0441],[-70.7622,-33.0352],[-70.758,-33.0322],[-70.7531,-33.025],[-70.7571,-33.0203],[-70.7562,-33.018],[-70.7502,-33.0119],[-70.7539,-33.0071],[-70.759,-33.005],[-70.7591,-32.998],[-70.7612,-32.9919],[-70.7701,-32.9833],[-70.7611,-32.98],[-70.7473,-32.967],[-70.7381,-32.9658],[-70.7209,-32.9531],[-70.7141,-32.9555],[-70.7074,-32.9607],[-70.7035,-32.9584],[-70.6973,-32.9586],[-70.6918,-32.9554],[-70.6835,-32.9586],[-70.674,-32.9597],[-70.6699,-32.9583],[-70.6681,-32.956],[-70.6599,-32.9536],[-70.6531,-32.9543],[-70.6448,-32.9526],[-70.6367,-32.9475],[-70.6268,-32.9493],[-70.6212,-32.9478],[-70.6141,-32.9517],[-70.609,-32.9435],[-70.6038,-32.9423],[-70.5943,-32.9486],[-70.5976,-32.953],[-70.5919,-32.9594],[-70.5927,-32.963],[-70.5912,-32.9653],[-70.593,-32.9693],[-70.5788,-32.9785],[-70.5724,-32.9875],[-70.5653,-32.9903],[-70.5648,-32.993],[-70.5576,-32.9986],[-70.5579,-33.0036],[-70.551,-33.0077],[-70.5497,-33.0121],[-70.5469,-33.0142],[-70.5468,-33.0183],[-70.5497,-33.0221],[-70.5531,-33.0348],[-70.5499,-33.0392],[-70.5447,-33.0403],[-70.5429,-33.043],[-70.5272,-33.0524],[-70.5271,-33.0583],[-70.5234,-33.0685],[-70.5195,-33.073],[-70.5192,-33.0786],[-70.5128,-33.0835],[-70.5086,-33.0893],[-70.4823,-33.0811],[-70.4784,-33.0756],[-70.4774,-33.0681],[-70.4693,-33.0655],[-70.4659,-33.0629],[-70.4592,-33.0474],[-70.4347,-33.0214],[-70.4252,-33.0213],[-70.4232,-33.0257],[-70.4166,-33.0251],[-70.3995,-33.0342],[-70.3989,-33.0408],[-70.4013,-33.0434],[-70.3982,-33.0461],[-70.3966,-33.0507],[-70.402,-33.0553],[-70.4069,-33.0656],[-70.3949,-33.0733],[-70.3947,-33.0803],[-70.386,-33.0833],[-70.3886,-33.089],[-70.3853,-33.0935],[-70.3805,-33.0963],[-70.3736,-33.1057],[-70.3776,-33.1088],[-70.3829,-33.1094],[-70.3864,-33.1153],[-70.398,-33.1217],[-70.4179,-33.1238],[-70.4218,-33.1279],[-70.4283,-33.1304],[-70.4306,-33.1349],[-70.4339,-33.1376],[-70.4367,-33.1443],[-70.4415,-33.1473],[-70.4449,-33.1566],[-70.4445,-33.1592],[-70.4546,-33.1681],[-70.4538,-33.172],[-70.4626,-33.1783],[-70.4595,-33.1823],[-70.4594,-33.1888],[-70.4675,-33.1959],[-70.4678,-33.2013],[-70.465,-33.2033],[-70.4701,-33.2097],[-70.4702,-33.2166],[-70.4732,-33.2196],[-70.4833,-33.218],[-70.4939,-33.2183],[-70.5002,-33.2206],[-70.5097,-33.2193],[-70.5138,-33.2212],[-70.5131,-33.2256],[-70.5152,-33.231],[-70.5242,-33.2389],[-70.5364,-33.2401],[-70.5434,-33.2388],[-70.5463,-33.2411],[-70.558,-33.2416],[-70.562,-33.248],[-70.5601,-33.252],[-70.5675,-33.2565],[-70.5696,-33.2619],[-70.5736,-33.2655],[-70.5733,-33.2719],[-70.5719,-33.2736],[-70.5728,-33.2759],[-70.5707,-33.2786],[-70.5745,-33.2894],[-70.5929,-33.2996],[-70.591,-33.3031],[-70.5962,-33.3084],[-70.6008,-33.3077],[-70.6046,-33.3107],[-70.6003,-33.3167],[-70.6,-33.3218],[-70.5941,-33.3318],[-70.5949,-33.3364],[-70.5983,-33.3384],[-70.6195,-33.3424],[-70.6329,-33.3403],[-70.6394,-33.3427],[-70.6451,-33.3419],[-70.6582,-33.3285],[-70.6626,-33.3294],[-70.6676,-33.3281],[-70.6817,-33.331],[-70.6837,-33.3292],[-70.6894,-33.3286],[-70.6909,-33.3246],[-70.6982,-33.321],[-70.708,-33.3188],[-70.7111,-33.3191],[-70.7085,-33.3228],[-70.7183,-33.3259],[-70.7188,-33.3246]]]]}},{"type":"Feature","properties":{"GID_3":"CHL.14.1.2_1","GID_0":"CHL","COUNTRY":"Chile","GID_1":"CHL.14_1","NAME_1":"SantiagoMetropolitan","NL_NAME_1":"NA","GID_2":"CHL.14.1_1","NAME_2":"Chacabuco","NL_NAME_2":"NA","NAME_3":"Lampa","VARNAME_3":"NA","NL_NAME_3":"NA","TYPE_3":"Comuna","ENGTYPE_3":"Municipality","CC_3":"NA","HASC_3":"NA"},"geometry":{"type":"MultiPolygon","coordinates":[[[[-70.792,-33.173],[-70.7836,-33.1802],[-70.7188,-33.3246],[-70.7935,-33.3413],[-70.7979,-33.3385],[-70.7988,-33.3449],[-70.8041,-33.3516],[-70.8111,-33.3577],[-70.8112,-33.3593],[-70.8212,-33.3631],[-70.8248,-33.3707],[-70.8277,-33.3718],[-70.8295,-33.3762],[-70.8322,-33.3778],[-70.8326,-33.3809],[-70.837,-33.3824],[-70.8392,-33.3853],[-70.8629,-33.3757],[-70.8709,-33.3755],[-70.8751,-33.3735],[-70.8815,-33.3761],[-70.8925,-33.3755],[-70.909,-33.3683],[-70.9235,-33.3755],[-70.9437,-33.3815],[-70.9467,-33.3849],[-70.9502,-33.3845],[-70.9681,-33.3759],[-70.9711,-33.3703],[-70.9846,-33.3603],[-70.9873,-33.3559],[-70.9865,-33.3497],[-70.9887,-33.3467],[-70.9964,-33.3425],[-71.0035,-33.3291],[-71.0018,-33.3093],[-70.9979,-33.3046],[-70.9844,-33.298],[-70.9747,-33.2959],[-70.9685,-33.29],[-70.9723,-33.2867],[-70.9743,-33.279],[-70.9783,-33.2734],[-70.9788,-33.2667],[-70.9823,-33.2613],[-70.9833,-33.2553],[-70.9948,-33.2374],[-70.996,-33.2291],[-71.0009,-33.2226],[-70.9998,-33.2177],[-71.0016,-33.2118],[-70.9969,-33.1976],[-70.9982,-33.1923],[-70.9925,-33.1826],[-70.9934,-33.1777],[-70.9857,-33.1775],[-70.9822,-33.1723],[-70.9782,-33.1735],[-70.9751,-33.1721],[-70.9727,-33.1745],[-70.9633,-33.1775],[-70.9579,-33.1762],[-70.9533,-33.1725],[-70.9406,-33.1767],[-70.9298,-33.1868],[-70.9091,-33.1815],[-70.8923,-33.1814],[-70.8898,-33.1854],[-70.8905,-33.1988],[-70.8946,-33.2109],[-70.8862,-33.2147],[-70.8879,-33.2235],[-70.883,-33.2289],[-70.8797,-33.2267],[-70.8753,-33.2275],[-70.8668,-33.2258],[-70.8565,-33.2041],[-70.85,-33.1978],[-70.8492,-33.1945],[-70.8511,-33.1863],[-70.8572,-33.1814],[-70.8353,-33.1797],[-70.8259,-33.1849],[-70.819,-33.1769],[-70.8113,-33.1747],[-70.8076,-33.1718],[-70.8022,-33.1721],[-70.7994,-33.1696],[-70.792,-33.173]]]]}},{"type":"Feature","properties":{"GID_3":"CHL.14.1.3_1","GID_0":"CHL","COUNTRY":"Chile","GID_1":"CHL.14_1","NAME_1":"SantiagoMetropolitan","NL_NAME_1":"NA","GID_2":"CHL.14.1_1","NAME_2":"Chacabuco","NL_NAME_2":"NA","NAME_3":"Tiltil","VARNAME_3":"NA","NL_NAME_3":"NA","TYPE_3":"Comuna","ENGTYPE_3":"Municipality","CC_3":"NA","HASC_3":"NA"},"geometry":{"type":"MultiPolygon","coordinates":[[[[-70.72,-32.953],[-70.7241,-32.9547],[-70.7262,-32.9577],[-70.7381,-32.9658],[-70.7473,-32.967],[-70.7611,-32.98],[-70.7704,-32.9837],[-70.7617,-32.9911],[-70.7591,-32.998],[-70.759,-33.005],[-70.7539,-33.0071],[-70.7502,-33.0119],[-70.7562,-33.018],[-70.7571,-33.0203],[-70.7531,-33.025],[-70.758,-33.0322],[-70.7622,-33.0352],[-70.7595,-33.0441],[-70.7612,-33.047],[-70.7653,-33.0492],[-70.7669,-33.0554],[-70.7626,-33.0597],[-70.7532,-33.0641],[-70.7469,-33.0694],[-70.748,-33.08],[-70.7597,-33.1035],[-70.7542,-33.1174],[-70.7595,-33.1253],[-70.7542,-33.1336],[-70.755,-33.1383],[-70.7529,-33.1416],[-70.7442,-33.1455],[-70.7387,-33.1584],[-70.7349,-33.1604],[-70.7342,-33.1634],[-70.7357,-33.1666],[-70.7444,-33.1692],[-70.7457,-33.1717],[-70.7514,-33.1745],[-70.7565,-33.1796],[-70.7643,-33.179],[-70.77,-33.1748],[-70.7741,-33.1754],[-70.782,-33.172],[-70.7927,-33.1729],[-70.7994,-33.1696],[-70.8022,-33.1721],[-70.8076,-33.1718],[-70.8113,-33.1747],[-70.819,-33.1769],[-70.8259,-33.1849],[-70.8353,-33.1797],[-70.8572,-33.1814],[-70.8511,-33.1863],[-70.8492,-33.1945],[-70.85,-33.1978],[-70.8565,-33.2041],[-70.8668,-33.2258],[-70.8753,-33.2275],[-70.8797,-33.2267],[-70.883,-33.2289],[-70.8879,-33.2235],[-70.8862,-33.2147],[-70.8946,-33.2109],[-70.8905,-33.1988],[-70.8898,-33.1854],[-70.8923,-33.1814],[-70.9091,-33.1815],[-70.9298,-33.1868],[-70.9406,-33.1767],[-70.9533,-33.1725],[-70.9579,-33.1762],[-70.9633,-33.1775],[-70.9727,-33.1745],[-70.9751,-33.1721],[-70.9782,-33.1735],[-70.9822,-33.1723],[-70.9857,-33.1775],[-70.9934,-33.1777],[-70.9916,-33.1758],[-71.004,-33.1589],[-71.0046,-33.1544],[-71.0102,-33.1539],[-71.0143,-33.149],[-71.0121,-33.1444],[-71.0133,-33.1422],[-71.0127,-33.1322],[-71.0168,-33.1226],[-71.0193,-33.1201],[-71.0201,-33.1106],[-71.0151,-33.0955],[-71.0226,-33.0878],[-71.0293,-33.0839],[-71.0261,-33.0783],[-71.0181,-33.0724],[-71.0174,-33.0692],[-71.0119,-33.0651],[-71.0089,-33.0651],[-71.0102,-33.0602],[-71.0076,-33.0527],[-71.0042,-33.0528],[-71.0009,-33.0501],[-71.0018,-33.0476],[-71.0075,-33.0444],[-71.0081,-33.0416],[-71.0136,-33.038],[-71.017,-33.0254],[-71.0199,-33.0209],[-71.0201,-33.0116],[-71.0268,-33.0052],[-71.0278,-32.9892],[-71.0199,-32.9806],[-71.0126,-32.9762],[-71.0015,-32.9756],[-70.9862,-32.9802],[-70.9828,-32.9765],[-70.971,-32.9765],[-70.963,-32.9736],[-70.9537,-32.9662],[-70.9468,-32.9724],[-70.9392,-32.9729],[-70.9265,-32.966],[-70.9227,-32.9541],[-70.9166,-32.9476],[-70.916,-32.9447],[-70.9092,-32.945],[-70.9066,-32.9359],[-70.8971,-32.9343],[-70.8859,-32.9387],[-70.8723,-32.9311],[-70.8653,-32.9323],[-70.8618,-32.9301],[-70.853,-32.929],[-70.842,-32.9225],[-70.8361,-32.9272],[-70.8239,-32.9282],[-70.8168,-32.9307],[-70.8123,-32.9299],[-70.8039,-32.9249],[-70.7943,-32.9259],[-70.7921,-32.9294],[-70.7817,-32.9292],[-70.778,-32.9334],[-70.7716,-32.9355],[-70.7664,-32.9339],[-70.7617,-32.9294],[-70.757,-32.9308],[-70.7528,-32.9291],[-70.7484,-32.9299],[-70.7365,-32.9238],[-70.7306,-32.9262],[-70.7282,-32.9246],[-70.7228,-32.9278],[-70.7236,-32.933],[-70.7208,-32.9415],[-70.7213,-32.9497],[-70.72,-32.953]]]]}},{"type":"Feature","properties":{"GID_3":"CHL.14.2.1_1","GID_0":"CHL","COUNTRY":"Chile","GID_1":"CHL.14_1","NAME_1":"SantiagoMetropolitan","NL_NAME_1":"NA","GID_2":"CHL.14.2_1","NAME_2":"Cordillera","NL_NAME_2":"NA","NAME_3":"Pirque","VARNAME_3":"NA","NL_NAME_3":"NA","TYPE_3":"Comuna","ENGTYPE_3":"Municipality","CC_3":"NA","HASC_3":"NA"},"geometry":{"type":"MultiPolygon","coordinates":[[[[-70.4338,-33.8536],[-70.4399,-33.8506],[-70.4446,-33.8557],[-70.4498,-33.8583],[-70.4611,-33.8584],[-70.4739,-33.8626],[-70.4759,-33.8586],[-70.4752,-33.8484],[-70.4825,-33.8348],[-70.4868,-33.8307],[-70.4936,-33.8297],[-70.502,-33.8343],[-70.5246,-33.8325],[-70.5271,-33.8246],[-70.5368,-33.8097],[-70.5356,-33.8004],[-70.5414,-33.7973],[-70.5464,-33.7969],[-70.5482,-33.7936],[-70.5596,-33.7846],[-70.5683,-33.785],[-70.5781,-33.7828],[-70.5878,-33.785],[-70.5956,-33.7815],[-70.5957,-33.7706],[-70.5999,-33.7655],[-70.5988,-33.7608],[-70.6056,-33.7568],[-70.6093,-33.7447],[-70.6144,-33.7385],[-70.6134,-33.7341],[-70.616,-33.7226],[-70.6211,-33.719],[-70.6221,-33.7128],[-70.6273,-33.7072],[-70.632,-33.7048],[-70.6375,-33.7045],[-70.645,-33.6976],[-70.6442,-33.6933],[-70.6518,-33.6795],[-70.6559,-33.6757],[-70.651,-33.6633],[-70.6402,-33.6598],[-70.634,-33.652],[-70.6305,-33.6419],[-70.6209,-33.6442],[-70.6145,-33.6415],[-70.6057,-33.6416],[-70.5969,-33.6377],[-70.5916,-33.6382],[-70.5862,-33.6342],[-70.5817,-33.6346],[-70.5762,-33.6273],[-70.5675,-33.6252],[-70.5653,-33.6205],[-70.557,-33.621],[-70.5445,-33.6182],[-70.5398,-33.6199],[-70.5308,-33.6156],[-70.5249,-33.6169],[-70.5191,-33.6165],[-70.5175,-33.6135],[-70.5122,-33.6147],[-70.5086,-33.6132],[-70.5075,-33.6086],[-70.4984,-33.6079],[-70.4984,-33.6057],[-70.5013,-33.6039],[-70.5005,-33.6022],[-70.4912,-33.5984],[-70.4875,-33.5946],[-70.4813,-33.5948],[-70.4789,-33.5896],[-70.4734,-33.5923],[-70.4609,-33.5911],[-70.4596,-33.5896],[-70.4622,-33.5816],[-70.4527,-33.5828],[-70.4499,-33.5798],[-70.4438,-33.5787],[-70.4436,-33.5892],[-70.4405,-33.601],[-70.441,-33.6087],[-70.4389,-33.6157],[-70.4351,-33.6207],[-70.4278,-33.6201],[-70.4227,-33.6351],[-70.4149,-33.6395],[-70.4108,-33.6455],[-70.407,-33.647],[-70.4125,-33.654],[-70.4194,-33.6593],[-70.4225,-33.6607],[-70.4295,-33.6606],[-70.4334,-33.6646],[-70.4307,-33.6697],[-70.4317,-33.6735],[-70.4381,-33.6778],[-70.4409,-33.6834],[-70.4333,-33.6953],[-70.4092,-33.7035],[-70.4021,-33.708],[-70.4005,-33.7125],[-70.4041,-33.7178],[-70.4025,-33.725],[-70.4048,-33.7305],[-70.4034,-33.7335],[-70.4036,-33.7428],[-70.4,-33.7493],[-70.4033,-33.754],[-70.4022,-33.7568],[-70.4041,-33.7588],[-70.4025,-33.7628],[-70.4039,-33.7689],[-70.4083,-33.7751],[-70.4069,-33.7856],[-70.4031,-33.7902],[-70.4064,-33.7951],[-70.4031,-33.8063],[-70.4038,-33.8144],[-70.4082,-33.8247],[-70.4077,-33.8317],[-70.4114,-33.8382],[-70.4212,-33.8419],[-70.4275,-33.8514],[-70.4338,-33.8536]]]]}},{"type":"Feature","properties":{"GID_3":"CHL.14.2.2_1","GID_0":"CHL","COUNTRY":"Chile","GID_1":"CHL.14_1","NAME_1":"SantiagoMetropolitan","NL_NAME_1":"NA","GID_2":"CHL.14.2_1","NAME_2":"Cordillera","NL_NAME_2":"NA","NAME_3":"PuenteAlto","VARNAME_3":"NA","NL_NAME_3":"NA","TYPE_3":"Comuna","ENGTYPE_3":"Municipality","CC_3":"NA","HASC_3":"NA"},"geometry":{"type":"MultiPolygon","coordinates":[[[[-70.4954,-33.5999],[-70.5011,-33.6028],[-70.4982,-33.606],[-70.4984,-33.6079],[-70.5075,-33.6086],[-70.5086,-33.6132],[-70.5122,-33.6147],[-70.5175,-33.6135],[-70.5191,-33.6165],[-70.5249,-33.6169],[-70.5308,-33.6156],[-70.5398,-33.6199],[-70.5445,-33.6182],[-70.557,-33.621],[-70.5659,-33.6207],[-70.5675,-33.6252],[-70.5762,-33.6273],[-70.5817,-33.6346],[-70.5862,-33.6342],[-70.5916,-33.6382],[-70.5969,-33.6377],[-70.6057,-33.6416],[-70.6145,-33.6415],[-70.6209,-33.6442],[-70.6287,-33.6414],[-70.6312,-33.6428],[-70.6264,-33.6186],[-70.6269,-33.6047],[-70.606,-33.602],[-70.6113,-33.5706],[-70.5993,-33.5673],[-70.5922,-33.5701],[-70.5837,-33.5695],[-70.5845,-33.5656],[-70.5574,-33.5608],[-70.5685,-33.5475],[-70.5509,-33.5481],[-70.5468,-33.552],[-70.5375,-33.5488],[-70.5314,-33.5444],[-70.5251,-33.5433],[-70.5145,-33.5435],[-70.5041,-33.5465],[-70.4982,-33.5436],[-70.4875,-33.5434],[-70.486,-33.5467],[-70.489,-33.5598],[-70.5004,-33.5724],[-70.5003,-33.5799],[-70.4981,-33.5825],[-70.4984,-33.5887],[-70.4959,-33.592],[-70.4954,-33.5999]]]]}},{"type":"Feature","properties":{"GID_3":"CHL.14.2.3_1","GID_0":"CHL","COUNTRY":"Chile","GID_1":"CHL.14_1","NAME_1":"SantiagoMetropolitan","NL_NAME_1":"NA","GID_2":"CHL.14.2_1","NAME_2":"Cordillera","NL_NAME_2":"NA","NAME_3":"SanJosédeMaipo","VARNAME_3":"NA","NL_NAME_3":"NA","TYPE_3":"Comuna","ENGTYPE_3":"Municipality","CC_3":"NA","HASC_3":"NA"},"geometry":{"type":"MultiPolygon","coordinates":[[[[-70.0937,-33.0514],[-70.0746,-33.0647],[-70.0702,-33.0794],[-70.0707,-33.0816],[-70.0674,-33.0868],[-70.0708,-33.0954],[-70.066,-33.1032],[-70.0713,-33.1083],[-70.0736,-33.1141],[-70.0762,-33.1166],[-70.0759,-33.1208],[-70.0741,-33.123],[-70.0607,-33.1288],[-70.0522,-33.1354],[-70.0525,-33.1391],[-70.0566,-33.1442],[-70.0565,-33.1491],[-70.0638,-33.1514],[-70.0671,-33.1547],[-70.0627,-33.1659],[-70.0573,-33.1712],[-70.0607,-33.1774],[-70.0651,-33.1794],[-70.0604,-33.1938],[-70.0647,-33.2003],[-70.0642,-33.2058],[-70.0552,-33.2259],[-70.0379,-33.2287],[-70.0284,-33.2326],[-70.0266,-33.2349],[-70.0295,-33.2411],[-70.0279,-33.2466],[-70.034,-33.2538],[-70.0387,-33.2702],[-70.0311,-33.2732],[-70.0273,-33.2766],[-70.0219,-33.2771],[-70.0125,-33.2821],[-70.0088,-33.2858],[-70.0062,-33.2861],[-70.0128,-33.3011],[-70.0101,-33.3037],[-70.0081,-33.3122],[-70.0092,-33.3165],[-70.0036,-33.3223],[-69.9997,-33.3221],[-69.9946,-33.3179],[-69.9914,-33.3186],[-69.9821,-33.3128],[-69.9715,-33.3104],[-69.9687,-33.3073],[-69.9675,-33.299],[-69.9585,-33.2901],[-69.9531,-33.2883],[-69.9497,-33.2816],[-69.9428,-33.2846],[-69.9367,-33.2761],[-69.9301,-33.275],[-69.9239,-33.2685],[-69.9168,-33.2671],[-69.9176,-33.2643],[-69.9154,-33.2559],[-69.9213,-33.2458],[-69.918,-33.2447],[-69.9084,-33.2699],[-69.9043,-33.2729],[-69.8902,-33.276],[-69.8861,-33.2786],[-69.8813,-33.2763],[-69.8735,-33.2764],[-69.8598,-33.283],[-69.8554,-33.2787],[-69.8462,-33.2755],[-69.8406,-33.2718],[-69.8336,-33.2737],[-69.8282,-33.2802],[-69.8243,-33.2805],[-69.8156,-33.2887],[-69.8087,-33.2897],[-69.8009,-33.2874],[-69.792,-33.3068],[-69.7838,-33.315],[-69.7833,-33.3184],[-69.7766,-33.3291],[-69.7759,-33.3343],[-69.7698,-33.3432],[-69.7704,-33.3575],[-69.7752,-33.3769],[-69.7782,-33.3838],[-69.7848,-33.3911],[-69.7952,-33.3969],[-69.8157,-33.3911],[-69.8072,-33.3966],[-69.8001,-33.4053],[-69.7971,-33.4127],[-69.7977,-33.4173],[-69.7958,-33.4222],[-69.7985,-33.4244],[-69.8072,-33.4242],[-69.8186,-33.4301],[-69.8186,-33.4353],[-69.8146,-33.4398],[-69.8145,-33.4429],[-69.8192,-33.4515],[-69.8213,-33.4527],[-69.8213,-33.4602],[-69.8151,-33.4694],[-69.8176,-33.4719],[-69.826,-33.4745],[-69.8294,-33.479],[-69.8325,-33.4951],[-69.8326,-33.5077],[-69.8354,-33.5154],[-69.8386,-33.5181],[-69.8481,-33.5208],[-69.8562,-33.5256],[-69.8604,-33.5326],[-69.8715,-33.5395],[-69.8718,-33.5476],[-69.8741,-33.5555],[-69.8691,-33.5649],[-69.8691,-33.572],[-69.8656,-33.5868],[-69.8675,-33.5958],[-69.874,-33.6006],[-69.8752,-33.6079],[-69.8809,-33.6186],[-69.875,-33.6241],[-69.8761,-33.6305],[-69.8738,-33.6366],[-69.8775,-33.6461],[-69.87,-33.6519],[-69.8754,-33.6582],[-69.8793,-33.6586],[-69.8843,-33.6838],[-69.878,-33.6884],[-69.8734,-33.6944],[-69.8692,-33.7091],[-69.8643,-33.7165],[-69.8777,-33.7336],[-69.8769,-33.7386],[-69.8965,-33.7557],[-69.9042,-33.7732],[-69.9026,-33.7804],[-69.8984,-33.782],[-69.8936,-33.7913],[-69.8954,-33.7989],[-69.8931,-33.8075],[-69.8967,-33.8139],[-69.8967,-33.8215],[-69.8947,-33.8238],[-69.8947,-33.8274],[-69.8977,-33.8297],[-69.8953,-33.8364],[-69.898,-33.8399],[-69.8983,-33.8476],[-69.8863,-33.8504],[-69.8845,-33.8552],[-69.8732,-33.8608],[-69.8695,-33.8681],[-69.8695,-33.8758],[-69.8676,-33.8812],[-69.8568,-33.8857],[-69.8554,-33.8922],[-69.8728,-33.9071],[-69.8755,-33.9142],[-69.884,-33.916],[-69.8903,-33.9207],[-69.892,-33.9246],[-69.8916,-33.9316],[-69.8941,-33.9357],[-69.8924,-33.9409],[-69.9007,-33.9494],[-69.9005,-33.9561],[-69.9059,-33.9635],[-69.8996,-33.9715],[-69.8904,-33.9753],[-69.8824,-33.9766],[-69.8805,-33.9758],[-69.8775,-33.9673],[-69.8742,-33.9646],[-69.8535,-33.9635],[-69.8549,-33.9655],[-69.853,-33.9742],[-69.8457,-33.9819],[-69.8409,-33.9926],[-69.8424,-33.9992],[-69.8397,-34.0072],[-69.8239,-34.0105],[-69.8216,-34.0156],[-69.828,-34.0245],[-69.8422,-34.035],[-69.8467,-34.0413],[-69.8496,-34.0511],[-69.8542,-34.0564],[-69.8485,-34.0684],[-69.8451,-34.0702],[-69.8324,-34.0718],[-69.8341,-34.0772],[-69.834,-34.0863],[-69.8371,-34.0877],[-69.8372,-34.091],[-69.8422,-34.0958],[-69.8531,-34.0992],[-69.8599,-34.1037],[-69.8562,-34.1135],[-69.864,-34.1217],[-69.8708,-34.1249],[-69.8732,-34.133],[-69.8702,-34.1359],[-69.8699,-34.1411],[-69.8652,-34.1419],[-69.8637,-34.1404],[-69.8606,-34.1419],[-69.8557,-34.1473],[-69.8365,-34.1585],[-69.8346,-34.1613],[-69.8345,-34.1656],[-69.8325,-34.1674],[-69.8271,-34.1684],[-69.8158,-34.177],[-69.8109,-34.1857],[-69.8011,-34.1935],[-69.7992,-34.2056],[-69.7971,-34.2092],[-69.8005,-34.2165],[-69.799,-34.2208],[-69.8013,-34.2225],[-69.8017,-34.2255],[-69.8054,-34.2267],[-69.805,-34.2312],[-69.8023,-34.2346],[-69.8066,-34.2481],[-69.8163,-34.2472],[-69.8233,-34.2489],[-69.8269,-34.2522],[-69.8275,-34.2558],[-69.83,-34.257],[-69.8463,-34.2573],[-69.8537,-34.256],[-69.8565,-34.2614],[-69.8591,-34.2608],[-69.8614,-34.2641],[-69.8643,-34.2635],[-69.8717,-34.2667],[-69.8787,-34.2669],[-69.8842,-34.2636],[-69.8868,-34.2652],[-69.8966,-34.2656],[-69.8995,-34.2707],[-69.8978,-34.2847],[-69.9094,-34.2907],[-69.9222,-34.2896],[-69.9238,-34.2848],[-69.9272,-34.2827],[-69.9402,-34.2798],[-69.9419,-34.2725],[-69.9458,-34.27],[-69.9546,-34.2597],[-69.9709,-34.2499],[-69.9835,-34.2543],[-69.9871,-34.2611],[-70.0029,-34.2616],[-70.0061,-34.2656],[-70.0107,-34.2658],[-70.0148,-34.2743],[-70.0196,-34.2762],[-70.019,-34.2811],[-70.0234,-34.2826],[-70.025,-34.286],[-70.028,-34.2878],[-70.0313,-34.2883],[-70.0457,-34.2813],[-70.0528,-34.2802],[-70.0526,-34.2672],[-70.0544,-34.2592],[-70.052,-34.2556],[-70.0492,-34.2439],[-70.0512,-34.2381],[-70.0502,-34.2276],[-70.0674,-34.2067],[-70.0774,-34.198],[-70.0932,-34.2031],[-70.1127,-34.2019],[-70.1152,-34.2003],[-70.1173,-34.1901],[-70.123,-34.1884],[-70.1313,-34.1892],[-70.1357,-34.1878],[-70.1428,-34.181],[-70.1472,-34.1797],[-70.1454,-34.1763],[-70.146,-34.1733],[-70.1501,-34.1697],[-70.1496,-34.1671],[-70.1538,-34.1612],[-70.1574,-34.1595],[-70.1643,-34.1592],[-70.1603,-34.1497],[-70.1646,-34.1406],[-70.1615,-34.1341],[-70.1583,-34.133],[-70.1577,-34.13],[-70.1532,-34.1282],[-70.1497,-34.1243],[-70.1417,-34.1202],[-70.1446,-34.1166],[-70.1579,-34.1111],[-70.1644,-34.1006],[-70.1645,-34.0959],[-70.1587,-34.0932],[-70.165,-34.0797],[-70.1722,-34.0716],[-70.1711,-34.0679],[-70.175,-34.0585],[-70.1746,-34.0534],[-70.1694,-34.0452],[-70.1748,-34.0421],[-70.1837,-34.0333],[-70.1871,-34.0324],[-70.205,-34.0345],[-70.2147,-34.0304],[-70.2393,-34.0325],[-70.2438,-34.0341],[-70.2459,-34.0385],[-70.2454,-34.0426],[-70.2482,-34.0476],[-70.2481,-34.0573],[-70.2528,-34.0598],[-70.2542,-34.0639],[-70.2596,-34.0678],[-70.2619,-34.0715],[-70.2664,-34.071],[-70.2707,-34.0657],[-70.2776,-34.0638],[-70.2875,-34.0585],[-70.3021,-34.0607],[-70.304,-34.0626],[-70.3041,-34.0657],[-70.3084,-34.0669],[-70.3136,-34.0621],[-70.3149,-34.0573],[-70.3291,-34.0591],[-70.3403,-34.0532],[-70.3415,-34.0429],[-70.3444,-34.039],[-70.3395,-34.0333],[-70.3392,-34.0302],[-70.3308,-34.0208],[-70.3258,-34.0198],[-70.3214,-34.0164],[-70.3225,-34.0136],[-70.3278,-34.0098],[-70.3211,-33.9993],[-70.3272,-33.992],[-70.3295,-33.9814],[-70.3405,-33.9796],[-70.3498,-33.971],[-70.3508,-33.9673],[-70.3464,-33.962],[-70.3468,-33.9565],[-70.3503,-33.9531],[-70.3594,-33.9509],[-70.3624,-33.9483],[-70.3658,-33.9443],[-70.3683,-33.9375],[-70.3762,-33.9279],[-70.3786,-33.9188],[-70.3757,-33.9155],[-70.375,-33.9111],[-70.3686,-33.9064],[-70.3729,-33.8996],[-70.3714,-33.8954],[-70.3755,-33.8888],[-70.3749,-33.8837],[-70.3839,-33.8794],[-70.3909,-33.8819],[-70.3981,-33.8803],[-70.411,-33.8707],[-70.4191,-33.8561],[-70.4338,-33.8536],[-70.4275,-33.8514],[-70.4212,-33.8419],[-70.4114,-33.8382],[-70.4077,-33.8317],[-70.4082,-33.8247],[-70.4038,-33.8144],[-70.4031,-33.8063],[-70.4064,-33.7951],[-70.4031,-33.7902],[-70.4069,-33.7856],[-70.4083,-33.7751],[-70.4039,-33.7689],[-70.4025,-33.7628],[-70.4041,-33.7588],[-70.4022,-33.7568],[-70.4033,-33.754],[-70.4,-33.7493],[-70.4036,-33.7428],[-70.4034,-33.7335],[-70.4048,-33.7305],[-70.4025,-33.725],[-70.4041,-33.7178],[-70.4005,-33.7125],[-70.4021,-33.708],[-70.4092,-33.7035],[-70.4333,-33.6953],[-70.4409,-33.6834],[-70.4381,-33.6778],[-70.4317,-33.6735],[-70.4307,-33.6697],[-70.4334,-33.6646],[-70.4295,-33.6606],[-70.4225,-33.6607],[-70.4194,-33.6593],[-70.4125,-33.654],[-70.407,-33.647],[-70.4108,-33.6455],[-70.4149,-33.6395],[-70.4227,-33.6351],[-70.4278,-33.6201],[-70.4351,-33.6207],[-70.4389,-33.6157],[-70.441,-33.6087],[-70.4405,-33.601],[-70.4436,-33.5892],[-70.4438,-33.5787],[-70.4499,-33.5798],[-70.4527,-33.5828],[-70.4622,-33.5816],[-70.4596,-33.5896],[-70.4609,-33.5911],[-70.4734,-33.5923],[-70.4784,-33.5894],[-70.4813,-33.5948],[-70.4875,-33.5946],[-70.4912,-33.5984],[-70.4954,-33.5999],[-70.4959,-33.592],[-70.4984,-33.5887],[-70.4981,-33.5825],[-70.5005,-33.5794],[-70.5001,-33.5713],[-70.489,-33.5598],[-70.4861,-33.5479],[-70.4875,-33.5434],[-70.4867,-33.5402],[-70.48,-33.5369],[-70.4798,-33.5317],[-70.4692,-33.5268],[-70.4646,-33.5168],[-70.4601,-33.5147],[-70.4505,-33.5061],[-70.4431,-33.5042],[-70.439,-33.5002],[-70.4371,-33.4974],[-70.4392,-33.4866],[-70.4362,-33.4819],[-70.4301,-33.4818],[-70.4285,-33.4843],[-70.4191,-33.4819],[-70.403,-33.4895],[-70.3937,-33.4907],[-70.3885,-33.4867],[-70.3793,-33.4831],[-70.3727,-33.4829],[-70.3611,-33.4872],[-70.3533,-33.4866],[-70.3514,-33.4916],[-70.3407,-33.4846],[-70.3345,-33.4767],[-70.3208,-33.4724],[-70.315,-33.4666],[-70.3047,-33.4645],[-70.2992,-33.4583],[-70.2984,-33.4521],[-70.2923,-33.451],[-70.2853,-33.4524],[-70.2816,-33.4554],[-70.2668,-33.4454],[-70.2576,-33.4437],[-70.2541,-33.4394],[-70.245,-33.4363],[-70.2412,-33.4309],[-70.2383,-33.4294],[-70.2358,-33.4236],[-70.219,-33.4123],[-70.217,-33.407],[-70.2178,-33.4006],[-70.2133,-33.3958],[-70.2032,-33.3916],[-70.1979,-33.3801],[-70.1934,-33.3767],[-70.1944,-33.3725],[-70.1918,-33.3666],[-70.1869,-33.3631],[-70.1816,-33.3625],[-70.1806,-33.3592],[-70.1773,-33.3565],[-70.1802,-33.3507],[-70.1759,-33.3456],[-70.1821,-33.3381],[-70.1821,-33.3221],[-70.188,-33.305],[-70.1993,-33.2903],[-70.2005,-33.2786],[-70.1984,-33.2715],[-70.2045,-33.2627],[-70.2105,-33.2593],[-70.2082,-33.2501],[-70.2164,-33.2407],[-70.2167,-33.2389],[-70.2143,-33.2371],[-70.2178,-33.2385],[-70.2208,-33.2374],[-70.2231,-33.2317],[-70.2228,-33.2279],[-70.2176,-33.223],[-70.2179,-33.2174],[-70.2262,-33.2114],[-70.2307,-33.2036],[-70.2373,-33.2016],[-70.2402,-33.1967],[-70.2398,-33.1922],[-70.2437,-33.187],[-70.2377,-33.1758],[-70.24,-33.1704],[-70.2392,-33.1647],[-70.2307,-33.1587],[-70.2268,-33.1499],[-70.2322,-33.1442],[-70.2361,-33.1427],[-70.2362,-33.1404],[-70.2319,-33.1391],[-70.2284,-33.1352],[-70.224,-33.1353],[-70.2165,-33.1292],[-70.2093,-33.1275],[-70.2046,-33.1243],[-70.2,-33.1114],[-70.1902,-33.1095],[-70.1862,-33.1062],[-70.1843,-33.1022],[-70.1795,-33.103],[-70.1772,-33.1067],[-70.1559,-33.1131],[-70.1529,-33.1069],[-70.1587,-33.0992],[-70.1501,-33.0944],[-70.1364,-33.0942],[-70.1319,-33.0902],[-70.1322,-33.0872],[-70.1291,-33.0794],[-70.1243,-33.0753],[-70.1129,-33.0719],[-70.1161,-33.067],[-70.1153,-33.0642],[-70.1077,-33.059],[-70.1023,-33.0528],[-70.0937,-33.0514]]]]}},{"type":"Feature","properties":{"GID_3":"CHL.14.3.1_1","GID_0":"CHL","COUNTRY":"Chile","GID_1":"CHL.14_1","NAME_1":"SantiagoMetropolitan","NL_NAME_1":"NA","GID_2":"CHL.14.3_1","NAME_2":"Maipo","NL_NAME_2":"NA","NAME_3":"Buin","VARNAME_3":"NA","NL_NAME_3":"NA","TYPE_3":"Comuna","ENGTYPE_3":"Municipality","CC_3":"NA","HASC_3":"NA"},"geometry":{"type":"MultiPolygon","coordinates":[[[[-70.6312,-33.6428],[-70.634,-33.652],[-70.6402,-33.6598],[-70.651,-33.6633],[-70.6559,-33.6757],[-70.6518,-33.6795],[-70.6442,-33.6933],[-70.645,-33.6976],[-70.6375,-33.7045],[-70.6281,-33.7066],[-70.6221,-33.7128],[-70.6217,-33.718],[-70.616,-33.7226],[-70.6134,-33.7341],[-70.614,-33.7374],[-70.6154,-33.7385],[-70.6234,-33.7375],[-70.626,-33.7426],[-70.6334,-33.7491],[-70.641,-33.7493],[-70.6548,-33.7438],[-70.662,-33.748],[-70.6712,-33.7569],[-70.6882,-33.7592],[-70.6907,-33.7911],[-70.7027,-33.7927],[-70.7024,-33.7896],[-70.7394,-33.7891],[-70.7371,-33.7743],[-70.751,-33.7729],[-70.7574,-33.8165],[-70.7619,-33.8118],[-70.7847,-33.8346],[-70.7919,-33.8305],[-70.7988,-33.8296],[-70.803,-33.8273],[-70.8084,-33.8304],[-70.8172,-33.8278],[-70.8207,-33.8308],[-70.8239,-33.8302],[-70.8319,-33.8323],[-70.834,-33.8286],[-70.8444,-33.8257],[-70.8478,-33.8208],[-70.8583,-33.8146],[-70.8661,-33.814],[-70.8707,-33.8096],[-70.8738,-33.8115],[-70.8864,-33.8104],[-70.8906,-33.8067],[-70.8951,-33.8054],[-70.8911,-33.8012],[-70.8774,-33.8039],[-70.8626,-33.7948],[-70.8584,-33.7875],[-70.8389,-33.7742],[-70.8373,-33.769],[-70.8338,-33.7656],[-70.8287,-33.7648],[-70.821,-33.7541],[-70.814,-33.7505],[-70.8123,-33.747],[-70.8121,-33.7392],[-70.8092,-33.7354],[-70.7952,-33.7305],[-70.7803,-33.717],[-70.7702,-33.7109],[-70.7677,-33.7068],[-70.7439,-33.6985],[-70.736,-33.6978],[-70.7328,-33.6951],[-70.7259,-33.6931],[-70.7169,-33.6833],[-70.7142,-33.6705],[-70.71,-33.6655],[-70.6728,-33.6599],[-70.6617,-33.6551],[-70.6576,-33.6503],[-70.6481,-33.6494],[-70.6328,-33.6445],[-70.6312,-33.6428]]]]}},{"type":"Feature","properties":{"GID_3":"CHL.14.3.2_1","GID_0":"CHL","COUNTRY":"Chile","GID_1":"CHL.14_1","NAME_1":"SantiagoMetropolitan","NL_NAME_1":"NA","GID_2":"CHL.14.3_1","NAME_2":"Maipo","NL_NAME_2":"NA","NAME_3":"CaleradeTango","VARNAME_3":"NA","NL_NAME_3":"NA","TYPE_3":"Comuna","ENGTYPE_3":"Municipality","CC_3":"NA","HASC_3":"NA"},"geometry":{"type":"MultiPolygon","coordinates":[[[[-70.7674,-33.572],[-70.7635,-33.5746],[-70.7584,-33.5742],[-70.7564,-33.5757],[-70.7529,-33.5791],[-70.7531,-33.582],[-70.7502,-33.5862],[-70.7432,-33.5943],[-70.7544,-33.6032],[-70.7467,-33.6175],[-70.757,-33.6209],[-70.7525,-33.6269],[-70.7437,-33.6345],[-70.738,-33.6449],[-70.7355,-33.6464],[-70.7377,-33.656],[-70.7418,-33.6632],[-70.7492,-33.6644],[-70.7572,-33.6629],[-70.783,-33.6532],[-70.7925,-33.6602],[-70.7978,-33.6653],[-70.7988,-33.6683],[-70.8025,-33.6684],[-70.808,-33.6606],[-70.811,-33.6529],[-70.8117,-33.6446],[-70.8185,-33.6424],[-70.8363,-33.6625],[-70.8671,-33.6506],[-70.8442,-33.6322],[-70.8253,-33.6108],[-70.8168,-33.5959],[-70.8142,-33.5935],[-70.8111,-33.5962],[-70.8086,-33.5937],[-70.7981,-33.5733],[-70.7887,-33.5783],[-70.7788,-33.5692],[-70.7674,-33.572]]]]}},{"type":"Feature","properties":{"GID_3":"CHL.14.3.3_1","GID_0":"CHL","COUNTRY":"Chile","GID_1":"CHL.14_1","NAME_1":"SantiagoMetropolitan","NL_NAME_1":"NA","GID_2":"CHL.14.3_1","NAME_2":"Maipo","NL_NAME_2":"NA","NAME_3":"Paine","VARNAME_3":"NA","NL_NAME_3":"NA","TYPE_3":"Comuna","ENGTYPE_3":"Municipality","CC_3":"NA","HASC_3":"NA"},"geometry":{"type":"MultiPolygon","coordinates":[[[[-70.4753,-33.8607],[-70.4924,-33.8621],[-70.4954,-33.8604],[-70.5026,-33.863],[-70.5049,-33.8665],[-70.5036,-33.8708],[-70.5044,-33.8761],[-70.5075,-33.8784],[-70.5103,-33.8849],[-70.5165,-33.8882],[-70.5191,-33.8862],[-70.5246,-33.8854],[-70.5306,-33.8862],[-70.5352,-33.8828],[-70.5412,-33.881],[-70.5544,-33.8812],[-70.5577,-33.8843],[-70.5611,-33.8845],[-70.564,-33.8887],[-70.5744,-33.8933],[-70.5768,-33.8968],[-70.5827,-33.8972],[-70.5858,-33.893],[-70.5881,-33.8923],[-70.6001,-33.8945],[-70.6058,-33.8985],[-70.6087,-33.8982],[-70.6172,-33.9018],[-70.6259,-33.9136],[-70.637,-33.9174],[-70.6401,-33.9223],[-70.639,-33.9243],[-70.6401,-33.9284],[-70.6436,-33.9335],[-70.6513,-33.9349],[-70.654,-33.9369],[-70.6629,-33.9382],[-70.6683,-33.9344],[-70.6722,-33.9337],[-70.6752,-33.9292],[-70.6852,-33.9229],[-70.6862,-33.9181],[-70.6909,-33.9124],[-70.7012,-33.9058],[-70.708,-33.9055],[-70.7115,-33.9067],[-70.7125,-33.9107],[-70.7195,-33.9174],[-70.7244,-33.9197],[-70.7273,-33.9181],[-70.7313,-33.9225],[-70.7406,-33.9225],[-70.7436,-33.924],[-70.7485,-33.9327],[-70.7583,-33.9429],[-70.7672,-33.9427],[-70.7705,-33.9445],[-70.7786,-33.9392],[-70.7865,-33.937],[-70.7967,-33.9314],[-70.7984,-33.9346],[-70.8033,-33.9367],[-70.8058,-33.9451],[-70.8127,-33.9494],[-70.8184,-33.9487],[-70.8242,-33.9515],[-70.8252,-33.9535],[-70.8334,-33.9519],[-70.8465,-33.9566],[-70.8561,-33.9651],[-70.8568,-33.967],[-70.8548,-33.969],[-70.8559,-33.9708],[-70.8652,-33.9744],[-70.8822,-33.9843],[-70.8953,-33.9887],[-70.9081,-33.9776],[-70.9158,-33.9799],[-70.9289,-33.975],[-70.933,-33.9779],[-70.9355,-33.9777],[-70.9453,-33.975],[-70.9488,-33.9718],[-70.9564,-33.9726],[-70.9629,-33.9706],[-70.9663,-33.9675],[-70.9617,-33.9607],[-70.9631,-33.9563],[-70.9547,-33.9429],[-70.9616,-33.9356],[-70.9603,-33.9229],[-70.9663,-33.9178],[-70.9741,-33.9055],[-70.9757,-33.8833],[-70.9777,-33.8789],[-70.9772,-33.8705],[-70.9793,-33.8669],[-70.9786,-33.862],[-70.9819,-33.8558],[-70.9795,-33.8517],[-70.9813,-33.8483],[-70.9803,-33.8426],[-70.989,-33.8359],[-70.9831,-33.8012],[-70.9803,-33.7991],[-70.9617,-33.7939],[-70.9493,-33.7979],[-70.9225,-33.8008],[-70.9179,-33.7963],[-70.9166,-33.7913],[-70.9179,-33.7885],[-70.9124,-33.7747],[-70.9122,-33.7672],[-70.9057,-33.7797],[-70.9039,-33.789],[-70.9053,-33.7965],[-70.9009,-33.8032],[-70.8963,-33.8036],[-70.8928,-33.8021],[-70.8951,-33.8054],[-70.8906,-33.8067],[-70.887,-33.8103],[-70.8738,-33.8115],[-70.8707,-33.8096],[-70.8661,-33.814],[-70.8583,-33.8146],[-70.8478,-33.8208],[-70.8444,-33.8257],[-70.834,-33.8286],[-70.8319,-33.8323],[-70.8239,-33.8302],[-70.8207,-33.8308],[-70.8172,-33.8278],[-70.8084,-33.8304],[-70.803,-33.8273],[-70.7988,-33.8296],[-70.7919,-33.8305],[-70.7847,-33.8346],[-70.7619,-33.8118],[-70.7574,-33.8165],[-70.751,-33.7729],[-70.7371,-33.7743],[-70.7394,-33.7891],[-70.7024,-33.7896],[-70.7027,-33.7927],[-70.6907,-33.7911],[-70.6882,-33.7592],[-70.6712,-33.7569],[-70.662,-33.748],[-70.6548,-33.7438],[-70.641,-33.7493],[-70.6334,-33.7491],[-70.622,-33.7371],[-70.6144,-33.7385],[-70.6093,-33.7447],[-70.6056,-33.7568],[-70.5988,-33.7608],[-70.5999,-33.7655],[-70.5957,-33.7706],[-70.5956,-33.7815],[-70.5878,-33.785],[-70.5781,-33.7828],[-70.5683,-33.785],[-70.5596,-33.7846],[-70.5482,-33.7936],[-70.5464,-33.7969],[-70.5414,-33.7973],[-70.5356,-33.8004],[-70.5368,-33.8097],[-70.5271,-33.8246],[-70.5246,-33.8325],[-70.502,-33.8343],[-70.4936,-33.8297],[-70.4868,-33.8307],[-70.4825,-33.8348],[-70.4752,-33.8484],[-70.4753,-33.8607]]]]}},{"type":"Feature","properties":{"GID_3":"CHL.14.3.4_1","GID_0":"CHL","COUNTRY":"Chile","GID_1":"CHL.14_1","NAME_1":"SantiagoMetropolitan","NL_NAME_1":"NA","GID_2":"CHL.14.3_1","NAME_2":"Maipo","NL_NAME_2":"NA","NAME_3":"SanBernardo","VARNAME_3":"NA","NL_NAME_3":"NA","TYPE_3":"Comuna","ENGTYPE_3":"Municipality","CC_3":"NA","HASC_3":"NA"},"geometry":{"type":"MultiPolygon","coordinates":[[[[-70.6287,-33.6278],[-70.6312,-33.6428],[-70.6328,-33.6445],[-70.6524,-33.6505],[-70.6576,-33.6503],[-70.6617,-33.6551],[-70.6734,-33.6601],[-70.71,-33.6655],[-70.7142,-33.6705],[-70.7169,-33.6833],[-70.7259,-33.6931],[-70.7328,-33.6951],[-70.736,-33.6978],[-70.7439,-33.6985],[-70.7677,-33.7068],[-70.7702,-33.7109],[-70.7803,-33.717],[-70.7952,-33.7305],[-70.8059,-33.7335],[-70.8106,-33.7367],[-70.8144,-33.751],[-70.8211,-33.7542],[-70.8248,-33.7516],[-70.8261,-33.7486],[-70.8251,-33.7418],[-70.8217,-33.7398],[-70.8205,-33.7365],[-70.8213,-33.727],[-70.8244,-33.721],[-70.8184,-33.7198],[-70.8119,-33.7228],[-70.8064,-33.7202],[-70.8043,-33.7117],[-70.7918,-33.6981],[-70.7914,-33.696],[-70.7961,-33.6877],[-70.7956,-33.6835],[-70.7991,-33.6803],[-70.8015,-33.6733],[-70.8035,-33.6721],[-70.8025,-33.6684],[-70.7988,-33.6683],[-70.7978,-33.6653],[-70.7841,-33.6533],[-70.7492,-33.6644],[-70.7418,-33.6632],[-70.7379,-33.6564],[-70.7355,-33.6464],[-70.738,-33.6449],[-70.7437,-33.6345],[-70.7525,-33.6269],[-70.757,-33.6209],[-70.7467,-33.6175],[-70.7544,-33.6032],[-70.7432,-33.5943],[-70.7502,-33.5862],[-70.7531,-33.582],[-70.7529,-33.5791],[-70.7564,-33.5757],[-70.7584,-33.5742],[-70.7635,-33.5746],[-70.7674,-33.572],[-70.7264,-33.5239],[-70.6854,-33.5391],[-70.6929,-33.5561],[-70.6955,-33.5559],[-70.6971,-33.5648],[-70.7008,-33.573],[-70.6767,-33.5824],[-70.6632,-33.5852],[-70.6706,-33.6075],[-70.6432,-33.6099],[-70.6443,-33.6196],[-70.6422,-33.6198],[-70.6431,-33.6272],[-70.6287,-33.6278]]]]}},{"type":"Feature","properties":{"GID_3":"CHL.14.4.1_1","GID_0":"CHL","COUNTRY":"Chile","GID_1":"CHL.14_1","NAME_1":"SantiagoMetropolitan","NL_NAME_1":"NA","GID_2":"CHL.14.4_1","NAME_2":"Melipilla","NL_NAME_2":"NA","NAME_3":"Alhué","VARNAME_3":"NA","NL_NAME_3":"NA","TYPE_3":"Comuna","ENGTYPE_3":"Municipality","CC_3":"NA","HASC_3":"NA"},"geometry":{"type":"MultiPolygon","coordinates":[[[[-70.9688,-34.172],[-70.9847,-34.1733],[-71.0052,-34.1678],[-71.0249,-34.1705],[-71.0277,-34.1664],[-71.0323,-34.1648],[-71.0429,-34.172],[-71.0479,-34.1713],[-71.0527,-34.1735],[-71.0542,-34.1787],[-71.0665,-34.1798],[-71.0722,-34.1842],[-71.0788,-34.1814],[-71.0821,-34.1827],[-71.0862,-34.1805],[-71.0895,-34.1806],[-71.0914,-34.1749],[-71.1059,-34.1663],[-71.1129,-34.1667],[-71.1182,-34.1641],[-71.1264,-34.1667],[-71.1439,-34.1649],[-71.1482,-34.1661],[-71.1535,-34.1639],[-71.16,-34.1643],[-71.1736,-34.1598],[-71.1849,-34.1584],[-71.188,-34.154],[-71.202,-34.1452],[-71.2054,-34.1393],[-71.2051,-34.1354],[-71.2147,-34.1356],[-71.2162,-34.1317],[-71.2184,-34.1313],[-71.2217,-34.1263],[-71.2255,-34.1242],[-71.2312,-34.1172],[-71.2322,-34.1066],[-71.2432,-34.0957],[-71.2674,-34.0836],[-71.2696,-34.0791],[-71.2704,-34.0654],[-71.2668,-34.063],[-71.2707,-34.0524],[-71.2823,-34.0468],[-71.292,-34.0446],[-71.2982,-34.0379],[-71.3008,-34.0304],[-71.2938,-34.0268],[-71.2907,-34.023],[-71.2819,-34.0209],[-71.2764,-34.0172],[-71.2677,-34.0187],[-71.2637,-34.0164],[-71.2593,-34.0177],[-71.2484,-34.0133],[-71.2395,-34.0161],[-71.2311,-34.0123],[-71.2176,-33.9974],[-71.2095,-33.9939],[-71.2071,-33.9906],[-71.2083,-33.9851],[-71.2131,-33.9785],[-71.2146,-33.9738],[-71.2072,-33.9607],[-71.202,-33.9599],[-71.1939,-33.9614],[-71.1841,-33.9583],[-71.1799,-33.9632],[-71.1741,-33.9641],[-71.1663,-33.961],[-71.1659,-33.954],[-71.1577,-33.9487],[-71.1494,-33.9471],[-71.1427,-33.9492],[-71.1266,-33.9441],[-71.1147,-33.9464],[-71.1096,-33.9435],[-71.1055,-33.9381],[-71.0985,-33.9326],[-71.0978,-33.9292],[-71.0944,-33.9262],[-71.0855,-33.8946],[-71.0806,-33.893],[-71.0742,-33.8937],[-71.0692,-33.8907],[-71.0407,-33.8992],[-71.0318,-33.8992],[-71.0237,-33.8917],[-71.0187,-33.89],[-70.9982,-33.8949],[-70.9778,-33.9149],[-70.9733,-33.9174],[-70.9663,-33.9178],[-70.9603,-33.9229],[-70.9616,-33.9356],[-70.9546,-33.9431],[-70.9631,-33.9563],[-70.9617,-33.9607],[-70.9664,-33.967],[-70.9643,-33.9697],[-70.9567,-33.9725],[-70.9488,-33.9718],[-70.9453,-33.975],[-70.9355,-33.9777],[-70.933,-33.9779],[-70.9289,-33.975],[-70.9158,-33.9799],[-70.9081,-33.9776],[-70.8953,-33.9887],[-70.8822,-33.9843],[-70.8652,-33.9744],[-70.8559,-33.9708],[-70.8548,-33.969],[-70.8568,-33.967],[-70.8561,-33.9651],[-70.8465,-33.9566],[-70.8334,-33.9519],[-70.8249,-33.9534],[-70.8247,-33.9621],[-70.8153,-33.9663],[-70.8101,-33.9711],[-70.7979,-33.975],[-70.7958,-33.9823],[-70.7976,-33.9883],[-70.7919,-33.993],[-70.7935,-33.9958],[-70.7933,-33.9999],[-70.8068,-34.0085],[-70.8056,-34.0163],[-70.8085,-34.0216],[-70.8077,-34.0254],[-70.8126,-34.0265],[-70.8142,-34.0314],[-70.8177,-34.0355],[-70.8238,-34.0357],[-70.8314,-34.032],[-70.841,-34.0322],[-70.8441,-34.0289],[-70.8468,-34.0286],[-70.8605,-34.0309],[-70.8703,-34.0371],[-70.877,-34.0374],[-70.8828,-34.0398],[-70.8888,-34.0387],[-70.8919,-34.0496],[-70.8889,-34.054],[-70.8891,-34.0589],[-70.8913,-34.0623],[-70.8914,-34.072],[-70.8931,-34.0759],[-70.8997,-34.0794],[-70.9068,-34.0769],[-70.9129,-34.0806],[-70.9194,-34.078],[-70.9339,-34.0857],[-70.9375,-34.0904],[-70.9383,-34.1011],[-70.9412,-34.1052],[-70.9292,-34.1352],[-70.9163,-34.1418],[-70.9143,-34.1447],[-70.9338,-34.1515],[-70.9434,-34.1597],[-70.9512,-34.1633],[-70.9581,-34.1644],[-70.9688,-34.172]]]]}},{"type":"Feature","properties":{"GID_3":"CHL.14.4.2_1","GID_0":"CHL","COUNTRY":"Chile","GID_1":"CHL.14_1","NAME_1":"SantiagoMetropolitan","NL_NAME_1":"NA","GID_2":"CHL.14.4_1","NAME_2":"Melipilla","NL_NAME_2":"NA","NAME_3":"Curacaví","VARNAME_3":"NA","NL_NAME_3":"NA","TYPE_3":"Comuna","ENGTYPE_3":"Municipality","CC_3":"NA","HASC_3":"NA"},"geometry":{"type":"MultiPolygon","coordinates":[[[[-70.9975,-33.1984],[-71.0016,-33.2118],[-70.9998,-33.2177],[-71.0009,-33.2226],[-70.996,-33.2291],[-70.9948,-33.2374],[-70.9833,-33.2553],[-70.9823,-33.2613],[-70.9788,-33.2667],[-70.9783,-33.2734],[-70.9743,-33.279],[-70.9723,-33.2867],[-70.9685,-33.29],[-70.9741,-33.2956],[-70.9844,-33.298],[-70.9998,-33.3062],[-71.0018,-33.3093],[-71.0035,-33.3291],[-70.9964,-33.3425],[-70.9887,-33.3467],[-70.9865,-33.3497],[-70.9873,-33.3559],[-70.9846,-33.3603],[-70.9711,-33.3703],[-70.9681,-33.3759],[-70.9535,-33.3834],[-70.9467,-33.3849],[-70.9483,-33.3863],[-70.9489,-33.3925],[-70.9523,-33.4001],[-70.9501,-33.4078],[-70.9514,-33.413],[-70.9468,-33.4172],[-70.9483,-33.4318],[-70.9499,-33.4366],[-70.9543,-33.4382],[-70.9549,-33.448],[-70.9499,-33.4535],[-70.9493,-33.4584],[-70.9507,-33.4622],[-70.9485,-33.4647],[-70.9485,-33.4691],[-70.9373,-33.4756],[-70.93,-33.4766],[-70.9214,-33.4883],[-70.9242,-33.4903],[-70.9262,-33.4967],[-70.93,-33.5021],[-70.9286,-33.5077],[-70.9197,-33.5113],[-70.9197,-33.5136],[-70.9228,-33.518],[-70.923,-33.5244],[-70.9269,-33.5339],[-70.9265,-33.5375],[-70.9293,-33.5463],[-70.933,-33.5504],[-70.9358,-33.5512],[-70.9381,-33.5552],[-70.9484,-33.5606],[-70.9493,-33.5557],[-70.9534,-33.551],[-70.9609,-33.5477],[-70.9736,-33.5456],[-70.9858,-33.547],[-70.9889,-33.5455],[-70.9917,-33.5414],[-70.9985,-33.539],[-71.0134,-33.5402],[-71.0163,-33.5358],[-71.0228,-33.5318],[-71.0256,-33.5265],[-71.0362,-33.5216],[-71.044,-33.5043],[-71.0626,-33.4944],[-71.0637,-33.493],[-71.061,-33.4788],[-71.0736,-33.4683],[-71.0718,-33.4641],[-71.0657,-33.459],[-71.0655,-33.4502],[-71.0601,-33.4425],[-71.0609,-33.4398],[-71.0582,-33.4346],[-71.0592,-33.4307],[-71.0904,-33.4447],[-71.1025,-33.4462],[-71.1088,-33.4415],[-71.1126,-33.4447],[-71.1185,-33.4468],[-71.1377,-33.4483],[-71.1427,-33.4474],[-71.1488,-33.4498],[-71.1548,-33.447],[-71.1563,-33.4483],[-71.1621,-33.4483],[-71.1652,-33.4454],[-71.1731,-33.4502],[-71.1859,-33.4523],[-71.1888,-33.4499],[-71.1895,-33.4434],[-71.1937,-33.4407],[-71.201,-33.4409],[-71.208,-33.4357],[-71.2119,-33.4347],[-71.2303,-33.4334],[-71.232,-33.4275],[-71.2403,-33.4256],[-71.2422,-33.4209],[-71.2499,-33.4158],[-71.2513,-33.4127],[-71.2575,-33.4106],[-71.2644,-33.4113],[-71.2751,-33.4054],[-71.2773,-33.4023],[-71.2761,-33.3996],[-71.2682,-33.3938],[-71.2676,-33.3883],[-71.266,-33.3871],[-71.2553,-33.3832],[-71.2442,-33.3837],[-71.236,-33.3741],[-71.2321,-33.3754],[-71.223,-33.3732],[-71.2234,-33.3706],[-71.2201,-33.3648],[-71.2199,-33.3611],[-71.2142,-33.3552],[-71.2158,-33.3486],[-71.2109,-33.3357],[-71.2134,-33.3311],[-71.2057,-33.3308],[-71.205,-33.321],[-71.1956,-33.3111],[-71.1955,-33.3098],[-71.2012,-33.3103],[-71.2062,-33.3085],[-71.2147,-33.2933],[-71.2137,-33.2866],[-71.2222,-33.2798],[-71.2233,-33.2715],[-71.2267,-33.2694],[-71.2197,-33.2595],[-71.2213,-33.2538],[-71.2258,-33.2495],[-71.2256,-33.2464],[-71.2207,-33.2401],[-71.2151,-33.2391],[-71.2153,-33.2344],[-71.1894,-33.2268],[-71.1708,-33.2309],[-71.1656,-33.2296],[-71.163,-33.2257],[-71.1519,-33.2286],[-71.1489,-33.2324],[-71.1402,-33.2378],[-71.1198,-33.2309],[-71.1139,-33.2225],[-71.1107,-33.2208],[-71.0941,-33.2197],[-71.0813,-33.2257],[-71.0752,-33.2305],[-71.0726,-33.2304],[-71.0602,-33.2253],[-71.0603,-33.2172],[-71.0569,-33.2045],[-71.0531,-33.2052],[-71.0477,-33.2098],[-71.0444,-33.2098],[-71.0417,-33.2068],[-71.0385,-33.2076],[-71.0333,-33.2111],[-71.0331,-33.2154],[-71.0284,-33.2167],[-71.0257,-33.2149],[-71.0287,-33.2059],[-71.0265,-33.2018],[-71.0217,-33.201],[-71.0174,-33.2034],[-71.0147,-33.1999],[-71.0043,-33.1979],[-70.9975,-33.1984]]]]}},{"type":"Feature","properties":{"GID_3":"CHL.14.4.3_1","GID_0":"CHL","COUNTRY":"Chile","GID_1":"CHL.14_1","NAME_1":"SantiagoMetropolitan","NL_NAME_1":"NA","GID_2":"CHL.14.4_1","NAME_2":"Melipilla","NL_NAME_2":"NA","NAME_3":"MaríaPinto","VARNAME_3":"NA","NL_NAME_3":"NA","TYPE_3":"Comuna","ENGTYPE_3":"Municipality","CC_3":"NA","HASC_3":"NA"},"geometry":{"type":"MultiPolygon","coordinates":[[[[-71.2764,-33.4043],[-71.2644,-33.4113],[-71.2575,-33.4106],[-71.2519,-33.4124],[-71.2499,-33.4158],[-71.2422,-33.4209],[-71.2403,-33.4256],[-71.232,-33.4275],[-71.2303,-33.4334],[-71.2119,-33.4347],[-71.208,-33.4357],[-71.201,-33.4409],[-71.1937,-33.4407],[-71.1895,-33.4434],[-71.1888,-33.4499],[-71.1859,-33.4523],[-71.1731,-33.4502],[-71.1652,-33.4454],[-71.1621,-33.4483],[-71.1563,-33.4483],[-71.1548,-33.447],[-71.1488,-33.4498],[-71.1427,-33.4474],[-71.1377,-33.4483],[-71.1185,-33.4468],[-71.1126,-33.4447],[-71.1088,-33.4415],[-71.1025,-33.4462],[-71.0904,-33.4447],[-71.0592,-33.4307],[-71.0582,-33.4346],[-71.0609,-33.4398],[-71.0601,-33.4425],[-71.0655,-33.4502],[-71.0657,-33.459],[-71.0718,-33.4641],[-71.0736,-33.4683],[-71.061,-33.4788],[-71.0637,-33.493],[-71.044,-33.5043],[-71.0362,-33.5216],[-71.0256,-33.5265],[-71.0228,-33.5318],[-71.0163,-33.5358],[-71.0135,-33.5404],[-71.0315,-33.5515],[-71.0357,-33.5509],[-71.0458,-33.5554],[-71.0486,-33.5533],[-71.0592,-33.5561],[-71.0669,-33.5559],[-71.0773,-33.5494],[-71.0863,-33.5506],[-71.092,-33.5533],[-71.096,-33.5507],[-71.1092,-33.5476],[-71.1158,-33.5547],[-71.1217,-33.5503],[-71.1282,-33.5484],[-71.1381,-33.5493],[-71.1403,-33.551],[-71.1469,-33.5502],[-71.1503,-33.5509],[-71.1532,-33.5545],[-71.1638,-33.5557],[-71.1708,-33.5536],[-71.1801,-33.5543],[-71.1847,-33.5528],[-71.1908,-33.5476],[-71.2001,-33.5459],[-71.2092,-33.5415],[-71.2166,-33.5452],[-71.2145,-33.5513],[-71.2166,-33.552],[-71.2185,-33.5495],[-71.2213,-33.5506],[-71.222,-33.5558],[-71.2267,-33.558],[-71.2306,-33.5627],[-71.2361,-33.5613],[-71.2392,-33.5622],[-71.2342,-33.5659],[-71.2381,-33.5691],[-71.2423,-33.5664],[-71.2438,-33.5669],[-71.2449,-33.5694],[-71.2432,-33.5739],[-71.2516,-33.575],[-71.2533,-33.577],[-71.2512,-33.5825],[-71.2672,-33.5827],[-71.2757,-33.5806],[-71.2808,-33.5826],[-71.2885,-33.5885],[-71.2987,-33.5887],[-71.3044,-33.5847],[-71.317,-33.5883],[-71.3269,-33.5848],[-71.3291,-33.5835],[-71.3289,-33.571],[-71.3311,-33.5675],[-71.3284,-33.5633],[-71.3281,-33.5599],[-71.332,-33.5434],[-71.3347,-33.5413],[-71.3319,-33.5355],[-71.3412,-33.5306],[-71.3465,-33.5313],[-71.3511,-33.5286],[-71.3483,-33.5093],[-71.3516,-33.5055],[-71.3491,-33.5],[-71.3524,-33.4963],[-71.3532,-33.4926],[-71.3395,-33.476],[-71.342,-33.4712],[-71.342,-33.4649],[-71.336,-33.4564],[-71.3383,-33.4546],[-71.3389,-33.4497],[-71.3373,-33.4416],[-71.3405,-33.4393],[-71.3437,-33.4312],[-71.3415,-33.4275],[-71.3439,-33.4231],[-71.3433,-33.4157],[-71.3344,-33.413],[-71.3311,-33.4076],[-71.3264,-33.407],[-71.3253,-33.4098],[-71.3216,-33.411],[-71.3065,-33.4094],[-71.2978,-33.4133],[-71.2954,-33.4116],[-71.2817,-33.4105],[-71.2764,-33.4043]]]]}},{"type":"Feature","properties":{"GID_3":"CHL.14.4.4_1","GID_0":"CHL","COUNTRY":"Chile","GID_1":"CHL.14_1","NAME_1":"SantiagoMetropolitan","NL_NAME_1":"NA","GID_2":"CHL.14.4_1","NAME_2":"Melipilla","NL_NAME_2":"NA","NAME_3":"Melipilla","VARNAME_3":"NA","NL_NAME_3":"NA","TYPE_3":"Comuna","ENGTYPE_3":"Municipality","CC_3":"NA","HASC_3":"NA"},"geometry":{"type":"MultiPolygon","coordinates":[[[[-70.9807,-33.7995],[-70.9835,-33.8021],[-70.989,-33.8361],[-70.9803,-33.8426],[-70.9813,-33.8483],[-70.9795,-33.8517],[-70.9819,-33.8558],[-70.9786,-33.862],[-70.9793,-33.8669],[-70.9772,-33.8705],[-70.9777,-33.8789],[-70.9757,-33.8833],[-70.9748,-33.9028],[-70.9663,-33.9178],[-70.9733,-33.9174],[-70.9778,-33.9149],[-70.9924,-33.8997],[-71.0014,-33.8936],[-71.019,-33.89],[-71.0237,-33.8917],[-71.0318,-33.8992],[-71.0407,-33.8992],[-71.0567,-33.8934],[-71.0609,-33.8938],[-71.0693,-33.8907],[-71.0742,-33.8937],[-71.0806,-33.893],[-71.0855,-33.8945],[-71.0944,-33.9262],[-71.0978,-33.9292],[-71.0985,-33.9326],[-71.1055,-33.9381],[-71.109,-33.9431],[-71.1144,-33.9463],[-71.1266,-33.9441],[-71.1427,-33.9492],[-71.1494,-33.9471],[-71.1577,-33.9487],[-71.1659,-33.954],[-71.1663,-33.961],[-71.1741,-33.9641],[-71.1799,-33.9632],[-71.1841,-33.9583],[-71.1939,-33.9614],[-71.202,-33.9599],[-71.2072,-33.9607],[-71.2105,-33.9576],[-71.223,-33.9522],[-71.2259,-33.948],[-71.2259,-33.943],[-71.2292,-33.9369],[-71.2366,-33.9389],[-71.24,-33.9383],[-71.2438,-33.9347],[-71.2574,-33.9282],[-71.2629,-33.9206],[-71.2624,-33.9191],[-71.2723,-33.9112],[-71.2853,-33.9122],[-71.2901,-33.9088],[-71.2909,-33.9023],[-71.289,-33.8962],[-71.294,-33.8881],[-71.3,-33.8826],[-71.2975,-33.8727],[-71.3008,-33.8639],[-71.3133,-33.8609],[-71.319,-33.8686],[-71.3301,-33.8647],[-71.3416,-33.8671],[-71.3498,-33.8708],[-71.352,-33.875],[-71.3483,-33.8816],[-71.3582,-33.8919],[-71.3714,-33.8907],[-71.3847,-33.8782],[-71.3998,-33.8473],[-71.4051,-33.8427],[-71.4091,-33.834],[-71.4126,-33.8312],[-71.4131,-33.828],[-71.4205,-33.8217],[-71.4207,-33.8161],[-71.4233,-33.8137],[-71.421,-33.8044],[-71.4222,-33.7949],[-71.4334,-33.7889],[-71.4288,-33.7891],[-71.4171,-33.7847],[-71.4085,-33.785],[-71.4079,-33.7763],[-71.3964,-33.7667],[-71.3873,-33.7678],[-71.3825,-33.7653],[-71.3761,-33.7661],[-71.3732,-33.7637],[-71.3689,-33.7629],[-71.3628,-33.759],[-71.3594,-33.752],[-71.3591,-33.7468],[-71.3672,-33.7461],[-71.3712,-33.7428],[-71.3746,-33.7445],[-71.392,-33.7373],[-71.3904,-33.729],[-71.3951,-33.7263],[-71.3968,-33.7205],[-71.403,-33.7186],[-71.4055,-33.7155],[-71.4105,-33.7142],[-71.4185,-33.7083],[-71.4206,-33.7085],[-71.42,-33.7057],[-71.4246,-33.6982],[-71.4208,-33.6876],[-71.4362,-33.685],[-71.4378,-33.6834],[-71.4378,-33.6799],[-71.434,-33.6761],[-71.4339,-33.6719],[-71.4311,-33.6685],[-71.4315,-33.6638],[-71.4269,-33.6605],[-71.4219,-33.6608],[-71.4181,-33.6581],[-71.4112,-33.6592],[-71.4031,-33.6633],[-71.3992,-33.6629],[-71.3989,-33.6593],[-71.3956,-33.6555],[-71.3958,-33.6433],[-71.3938,-33.641],[-71.3872,-33.6391],[-71.3827,-33.6345],[-71.3821,-33.6321],[-71.3842,-33.6271],[-71.3827,-33.6233],[-71.3769,-33.6216],[-71.3692,-33.6236],[-71.3596,-33.6234],[-71.3545,-33.6209],[-71.3526,-33.618],[-71.3488,-33.6176],[-71.345,-33.6127],[-71.3391,-33.6109],[-71.3359,-33.6074],[-71.336,-33.6015],[-71.3319,-33.5945],[-71.332,-33.5856],[-71.3291,-33.5835],[-71.317,-33.5883],[-71.3044,-33.5847],[-71.2982,-33.5888],[-71.2884,-33.5885],[-71.2808,-33.5826],[-71.2757,-33.5806],[-71.2672,-33.5827],[-71.2512,-33.5825],[-71.2533,-33.577],[-71.2516,-33.575],[-71.2432,-33.5739],[-71.2449,-33.5694],[-71.2438,-33.5669],[-71.2423,-33.5664],[-71.2381,-33.5691],[-71.2342,-33.5659],[-71.2392,-33.5622],[-71.2361,-33.5613],[-71.2306,-33.5627],[-71.2267,-33.558],[-71.222,-33.5558],[-71.2213,-33.5506],[-71.2185,-33.5495],[-71.2166,-33.552],[-71.2145,-33.5513],[-71.2166,-33.5452],[-71.2092,-33.5415],[-71.2001,-33.5459],[-71.1908,-33.5476],[-71.1818,-33.5539],[-71.1708,-33.5536],[-71.1643,-33.5557],[-71.1532,-33.5545],[-71.1503,-33.5509],[-71.1469,-33.5502],[-71.1403,-33.551],[-71.1381,-33.5493],[-71.1282,-33.5484],[-71.1217,-33.5503],[-71.1153,-33.5547],[-71.1092,-33.5476],[-71.096,-33.5507],[-71.092,-33.5533],[-71.0783,-33.5493],[-71.0664,-33.556],[-71.0583,-33.5559],[-71.048,-33.5533],[-71.0458,-33.5554],[-71.0357,-33.5509],[-71.0315,-33.5515],[-71.026,-33.549],[-71.015,-33.5425],[-71.0131,-33.5397],[-71.0068,-33.5392],[-70.9985,-33.539],[-70.9933,-33.5408],[-70.9858,-33.547],[-70.9736,-33.5456],[-70.9609,-33.5477],[-70.9541,-33.5504],[-70.9493,-33.5557],[-70.9481,-33.5669],[-70.9366,-33.5771],[-70.9373,-33.5823],[-70.9352,-33.587],[-70.9375,-33.5933],[-70.9458,-33.5982],[-70.9502,-33.599],[-70.9545,-33.6049],[-70.9557,-33.6132],[-70.9638,-33.6219],[-70.9696,-33.624],[-70.9776,-33.618],[-70.9877,-33.6166],[-70.9948,-33.6137],[-71.0022,-33.6152],[-71.0115,-33.6257],[-71.0187,-33.6283],[-71.029,-33.6278],[-71.0321,-33.6329],[-71.0335,-33.6409],[-71.036,-33.6429],[-71.0414,-33.6389],[-71.0487,-33.6365],[-71.0596,-33.638],[-71.0626,-33.6325],[-71.0684,-33.6315],[-71.0736,-33.6284],[-71.0836,-33.6279],[-71.0896,-33.633],[-71.0979,-33.6342],[-71.1057,-33.6854],[-71.1171,-33.6826],[-71.1008,-33.6926],[-71.1027,-33.7054],[-71.1003,-33.7086],[-71.0957,-33.711],[-71.0972,-33.7158],[-71.1066,-33.7197],[-71.1097,-33.7236],[-71.1193,-33.7296],[-71.1206,-33.7337],[-71.1193,-33.7399],[-71.1106,-33.7441],[-71.092,-33.7479],[-71.082,-33.7551],[-71.0775,-33.7567],[-71.0567,-33.7532],[-71.0413,-33.7553],[-71.0353,-33.7615],[-71.0258,-33.7645],[-71.0179,-33.7714],[-71.0067,-33.7722],[-70.9971,-33.7784],[-70.9932,-33.7757],[-70.9877,-33.7768],[-70.9832,-33.7747],[-70.9811,-33.7797],[-70.9821,-33.7945],[-70.9807,-33.7995]]]]}},{"type":"Feature","properties":{"GID_3":"CHL.14.4.5_1","GID_0":"CHL","COUNTRY":"Chile","GID_1":"CHL.14_1","NAME_1":"SantiagoMetropolitan","NL_NAME_1":"NA","GID_2":"CHL.14.4_1","NAME_2":"Melipilla","NL_NAME_2":"NA","NAME_3":"SanPedro","VARNAME_3":"NA","NL_NAME_3":"NA","TYPE_3":"Comuna","ENGTYPE_3":"Municipality","CC_3":"NA","HASC_3":"NA"},"geometry":{"type":"MultiPolygon","coordinates":[[[[-71.3008,-34.0304],[-71.3064,-34.0395],[-71.312,-34.0439],[-71.3163,-34.043],[-71.3241,-34.0492],[-71.3287,-34.049],[-71.3337,-34.0525],[-71.3414,-34.0508],[-71.3478,-34.0561],[-71.3468,-34.0609],[-71.3511,-34.065],[-71.3658,-34.0605],[-71.3711,-34.0609],[-71.3873,-34.0681],[-71.3902,-34.076],[-71.3946,-34.0738],[-71.3985,-34.0681],[-71.4036,-34.0674],[-71.4109,-34.0628],[-71.4148,-34.0577],[-71.417,-34.0503],[-71.4128,-34.0404],[-71.413,-34.0361],[-71.42,-34.0325],[-71.4319,-34.0328],[-71.4372,-34.0238],[-71.443,-34.022],[-71.4485,-34.0144],[-71.4509,-34.0157],[-71.4544,-34.0149],[-71.458,-34.0181],[-71.4623,-34.0144],[-71.4731,-34.0107],[-71.4764,-34.0074],[-71.4897,-34.0037],[-71.4983,-33.9983],[-71.5143,-33.9948],[-71.5177,-33.9953],[-71.5233,-33.9925],[-71.5341,-33.9935],[-71.552,-33.9891],[-71.5547,-33.9931],[-71.5632,-33.9871],[-71.5666,-33.9871],[-71.5709,-33.9891],[-71.5691,-33.9939],[-71.5753,-34.0003],[-71.5715,-34.005],[-71.5721,-34.0071],[-71.5807,-34.0115],[-71.5802,-34.0153],[-71.5751,-34.0193],[-71.576,-34.0238],[-71.5873,-34.0341],[-71.5873,-34.0283],[-71.5969,-34.0253],[-71.5988,-34.0214],[-71.6025,-34.0188],[-71.6034,-34.0119],[-71.6102,-34.0091],[-71.6147,-34.0034],[-71.6396,-34.0013],[-71.6553,-33.9959],[-71.6669,-33.9973],[-71.6661,-33.9929],[-71.6678,-33.9886],[-71.6654,-33.9772],[-71.6709,-33.9729],[-71.6819,-33.9742],[-71.687,-33.9714],[-71.694,-33.9755],[-71.6985,-33.9728],[-71.6998,-33.9683],[-71.7117,-33.9666],[-71.7077,-33.9601],[-71.7128,-33.9491],[-71.7145,-33.9483],[-71.7143,-33.9462],[-71.7102,-33.9412],[-71.7038,-33.9405],[-71.6991,-33.934],[-71.6942,-33.9329],[-71.6915,-33.9282],[-71.6859,-33.9274],[-71.6655,-33.9182],[-71.5808,-33.8669],[-71.5732,-33.8738],[-71.5615,-33.8716],[-71.5606,-33.8735],[-71.5564,-33.8723],[-71.5565,-33.7948],[-71.5558,-33.7829],[-71.5526,-33.7713],[-71.5455,-33.7652],[-71.536,-33.7641],[-71.5301,-33.7687],[-71.5246,-33.7764],[-71.5206,-33.7784],[-71.5149,-33.7743],[-71.506,-33.7734],[-71.5025,-33.77],[-71.4946,-33.7696],[-71.4792,-33.7776],[-71.4751,-33.7844],[-71.4644,-33.7861],[-71.4604,-33.7837],[-71.4581,-33.7855],[-71.4494,-33.7871],[-71.4411,-33.7866],[-71.4335,-33.7886],[-71.4227,-33.7943],[-71.421,-33.8044],[-71.4233,-33.8137],[-71.4207,-33.8161],[-71.4205,-33.8217],[-71.4131,-33.828],[-71.4126,-33.8312],[-71.4091,-33.834],[-71.4051,-33.8427],[-71.3998,-33.8473],[-71.3847,-33.8782],[-71.3724,-33.8902],[-71.3635,-33.8924],[-71.3573,-33.8917],[-71.3483,-33.8816],[-71.3518,-33.8727],[-71.3431,-33.8676],[-71.3283,-33.8648],[-71.319,-33.8686],[-71.3133,-33.8609],[-71.3008,-33.8639],[-71.2975,-33.8727],[-71.3,-33.8826],[-71.294,-33.8881],[-71.289,-33.8962],[-71.2909,-33.9023],[-71.2901,-33.9088],[-71.2853,-33.9122],[-71.2723,-33.9112],[-71.2624,-33.9191],[-71.2629,-33.9206],[-71.2574,-33.9282],[-71.2438,-33.9347],[-71.24,-33.9383],[-71.2366,-33.9389],[-71.2292,-33.9369],[-71.2259,-33.943],[-71.2259,-33.948],[-71.223,-33.9522],[-71.2105,-33.9576],[-71.2072,-33.9607],[-71.2146,-33.9738],[-71.2131,-33.9785],[-71.2083,-33.9851],[-71.2071,-33.9906],[-71.2095,-33.9939],[-71.2176,-33.9974],[-71.2311,-34.0123],[-71.2395,-34.0161],[-71.2484,-34.0133],[-71.2593,-34.0177],[-71.2637,-34.0164],[-71.2677,-34.0187],[-71.2764,-34.0172],[-71.2819,-34.0209],[-71.2907,-34.023],[-71.2938,-34.0268],[-71.3008,-34.0304]]]]}},{"type":"Feature","properties":{"GID_3":"CHL.14.5.1_1","GID_0":"CHL","COUNTRY":"Chile","GID_1":"CHL.14_1","NAME_1":"SantiagoMetropolitan","NL_NAME_1":"NA","GID_2":"CHL.14.5_1","NAME_2":"Santiago","NL_NAME_2":"NA","NAME_3":"Cerrillos","VARNAME_3":"NA","NL_NAME_3":"NA","TYPE_3":"Comuna","ENGTYPE_3":"Municipality","CC_3":"NA","HASC_3":"NA"},"geometry":{"type":"MultiPolygon","coordinates":[[[[-70.7067,-33.5312],[-70.7264,-33.5239],[-70.7185,-33.5141],[-70.7233,-33.51],[-70.7401,-33.5101],[-70.7315,-33.4949],[-70.7315,-33.4828],[-70.7247,-33.4827],[-70.7223,-33.4734],[-70.7119,-33.4827],[-70.6922,-33.4781],[-70.6856,-33.4786],[-70.691,-33.4932],[-70.706,-33.5241],[-70.7067,-33.5312]]]]}},{"type":"Feature","properties":{"GID_3":"CHL.14.5.2_1","GID_0":"CHL","COUNTRY":"Chile","GID_1":"CHL.14_1","NAME_1":"SantiagoMetropolitan","NL_NAME_1":"NA","GID_2":"CHL.14.5_1","NAME_2":"Santiago","NL_NAME_2":"NA","NAME_3":"CerroNavia","VARNAME_3":"NA","NL_NAME_3":"NA","TYPE_3":"Comuna","ENGTYPE_3":"Municipality","CC_3":"NA","HASC_3":"NA"},"geometry":{"type":"MultiPolygon","coordinates":[[[[-70.7215,-33.4366],[-70.7224,-33.4389],[-70.7289,-33.4364],[-70.7409,-33.4364],[-70.7408,-33.4299],[-70.7629,-33.4277],[-70.7757,-33.4245],[-70.7821,-33.417],[-70.7823,-33.4137],[-70.7719,-33.4146],[-70.7521,-33.4121],[-70.7365,-33.4123],[-70.7279,-33.4139],[-70.7225,-33.4117],[-70.7159,-33.4151],[-70.7215,-33.4366]]]]}},{"type":"Feature","properties":{"GID_3":"CHL.14.5.3_1","GID_0":"CHL","COUNTRY":"Chile","GID_1":"CHL.14_1","NAME_1":"SantiagoMetropolitan","NL_NAME_1":"NA","GID_2":"CHL.14.5_1","NAME_2":"Santiago","NL_NAME_2":"NA","NAME_3":"Conchalí","VARNAME_3":"NA","NL_NAME_3":"NA","TYPE_3":"Comuna","ENGTYPE_3":"Municipality","CC_3":"NA","HASC_3":"NA"},"geometry":{"type":"MultiPolygon","coordinates":[[[[-70.6893,-33.3662],[-70.6822,-33.3669],[-70.6568,-33.3765],[-70.6581,-33.3991],[-70.6722,-33.3997],[-70.6819,-33.403],[-70.6899,-33.3894],[-70.7003,-33.3662],[-70.6893,-33.3662]]]]}},{"type":"Feature","properties":{"GID_3":"CHL.14.5.4_1","GID_0":"CHL","COUNTRY":"Chile","GID_1":"CHL.14_1","NAME_1":"SantiagoMetropolitan","NL_NAME_1":"NA","GID_2":"CHL.14.5_1","NAME_2":"Santiago","NL_NAME_2":"NA","NAME_3":"ElBosque","VARNAME_3":"NA","NL_NAME_3":"NA","TYPE_3":"Comuna","ENGTYPE_3":"Municipality","CC_3":"NA","HASC_3":"NA"},"geometry":{"type":"MultiPolygon","coordinates":[[[[-70.6632,-33.5852],[-70.6767,-33.5824],[-70.7008,-33.573],[-70.6971,-33.5648],[-70.6955,-33.5559],[-70.6929,-33.5561],[-70.6854,-33.5391],[-70.6667,-33.5464],[-70.6532,-33.5488],[-70.6632,-33.5852]]]]}},{"type":"Feature","properties":{"GID_3":"CHL.14.5.5_1","GID_0":"CHL","COUNTRY":"Chile","GID_1":"CHL.14_1","NAME_1":"SantiagoMetropolitan","NL_NAME_1":"NA","GID_2":"CHL.14.5_1","NAME_2":"Santiago","NL_NAME_2":"NA","NAME_3":"EstaciónCentral","VARNAME_3":"NA","NL_NAME_3":"NA","TYPE_3":"Comuna","ENGTYPE_3":"Municipality","CC_3":"NA","HASC_3":"NA"},"geometry":{"type":"MultiPolygon","coordinates":[[[[-70.6857,-33.4781],[-70.6922,-33.4781],[-70.7119,-33.4827],[-70.722,-33.4734],[-70.7338,-33.4696],[-70.7314,-33.4681],[-70.7313,-33.4549],[-70.7104,-33.4583],[-70.7056,-33.4572],[-70.7071,-33.4488],[-70.6923,-33.4479],[-70.6918,-33.4445],[-70.6796,-33.4439],[-70.679,-33.4507],[-70.6778,-33.4509],[-70.6801,-33.4707],[-70.6729,-33.4706],[-70.672,-33.4765],[-70.6808,-33.4765],[-70.6809,-33.4785],[-70.6857,-33.4781]]]]}},{"type":"Feature","properties":{"GID_3":"CHL.14.5.6_1","GID_0":"CHL","COUNTRY":"Chile","GID_1":"CHL.14_1","NAME_1":"SantiagoMetropolitan","NL_NAME_1":"NA","GID_2":"CHL.14.5_1","NAME_2":"Santiago","NL_NAME_2":"NA","NAME_3":"Huechuraba","VARNAME_3":"NA","NL_NAME_3":"NA","TYPE_3":"Comuna","ENGTYPE_3":"Municipality","CC_3":"NA","HASC_3":"NA"},"geometry":{"type":"MultiPolygon","coordinates":[[[[-70.6813,-33.331],[-70.6676,-33.3281],[-70.6626,-33.3294],[-70.6582,-33.3285],[-70.6451,-33.3419],[-70.6394,-33.3427],[-70.6329,-33.3403],[-70.6195,-33.3424],[-70.5961,-33.3371],[-70.5914,-33.3392],[-70.5889,-33.3458],[-70.5825,-33.351],[-70.5873,-33.3545],[-70.5926,-33.3555],[-70.6011,-33.3627],[-70.5973,-33.3658],[-70.6002,-33.379],[-70.6039,-33.3829],[-70.6015,-33.3885],[-70.6085,-33.3969],[-70.6106,-33.405],[-70.6442,-33.3812],[-70.6818,-33.367],[-70.6893,-33.3662],[-70.6934,-33.3516],[-70.6887,-33.3475],[-70.6872,-33.3423],[-70.6802,-33.3381],[-70.6813,-33.331]]]]}},{"type":"Feature","properties":{"GID_3":"CHL.14.5.7_1","GID_0":"CHL","COUNTRY":"Chile","GID_1":"CHL.14_1","NAME_1":"SantiagoMetropolitan","NL_NAME_1":"NA","GID_2":"CHL.14.5_1","NAME_2":"Santiago","NL_NAME_2":"NA","NAME_3":"Independencia","VARNAME_3":"NA","NL_NAME_3":"NA","TYPE_3":"Comuna","ENGTYPE_3":"Municipality","CC_3":"NA","HASC_3":"NA"},"geometry":{"type":"MultiPolygon","coordinates":[[[[-70.6819,-33.403],[-70.6722,-33.3997],[-70.6581,-33.3991],[-70.6572,-33.4053],[-70.6531,-33.4065],[-70.6529,-33.4175],[-70.6501,-33.4177],[-70.6516,-33.4322],[-70.6714,-33.4265],[-70.6783,-33.4185],[-70.6819,-33.403]]]]}},{"type":"Feature","properties":{"GID_3":"CHL.14.5.8_1","GID_0":"CHL","COUNTRY":"Chile","GID_1":"CHL.14_1","NAME_1":"SantiagoMetropolitan","NL_NAME_1":"NA","GID_2":"CHL.14.5_1","NAME_2":"Santiago","NL_NAME_2":"NA","NAME_3":"LaCisterna","VARNAME_3":"NA","NL_NAME_3":"NA","TYPE_3":"Comuna","ENGTYPE_3":"Municipality","CC_3":"NA","HASC_3":"NA"},"geometry":{"type":"MultiPolygon","coordinates":[[[[-70.6854,-33.5391],[-70.6712,-33.5107],[-70.6446,-33.5174],[-70.6532,-33.5488],[-70.6667,-33.5464],[-70.6854,-33.5391]]]]}},{"type":"Feature","properties":{"GID_3":"CHL.14.5.9_1","GID_0":"CHL","COUNTRY":"Chile","GID_1":"CHL.14_1","NAME_1":"SantiagoMetropolitan","NL_NAME_1":"NA","GID_2":"CHL.14.5_1","NAME_2":"Santiago","NL_NAME_2":"NA","NAME_3":"LaFlorida","VARNAME_3":"NA","NL_NAME_3":"NA","TYPE_3":"Comuna","ENGTYPE_3":"Municipality","CC_3":"NA","HASC_3":"NA"},"geometry":{"type":"MultiPolygon","coordinates":[[[[-70.4875,-33.5434],[-70.4982,-33.5436],[-70.5041,-33.5465],[-70.5145,-33.5435],[-70.5251,-33.5433],[-70.5314,-33.5444],[-70.5375,-33.5488],[-70.5468,-33.552],[-70.5509,-33.5481],[-70.5685,-33.5475],[-70.5574,-33.5608],[-70.5845,-33.5656],[-70.5837,-33.5695],[-70.5922,-33.5701],[-70.5993,-33.5673],[-70.6113,-33.5706],[-70.6125,-33.5622],[-70.6104,-33.562],[-70.6149,-33.5465],[-70.6106,-33.5467],[-70.6097,-33.5262],[-70.6116,-33.5104],[-70.6137,-33.5084],[-70.5417,-33.5125],[-70.5246,-33.5083],[-70.5163,-33.502],[-70.5044,-33.4997],[-70.5009,-33.5004],[-70.4997,-33.4978],[-70.4917,-33.5011],[-70.4857,-33.5016],[-70.4772,-33.4955],[-70.47,-33.4954],[-70.4667,-33.4921],[-70.4511,-33.4959],[-70.444,-33.4925],[-70.4379,-33.4922],[-70.4372,-33.4978],[-70.4392,-33.5005],[-70.4431,-33.5042],[-70.4505,-33.5061],[-70.4601,-33.5147],[-70.4646,-33.5168],[-70.4692,-33.5268],[-70.4798,-33.5317],[-70.48,-33.5369],[-70.4859,-33.5393],[-70.4875,-33.5434]]]]}},{"type":"Feature","properties":{"GID_3":"CHL.14.5.10_1","GID_0":"CHL","COUNTRY":"Chile","GID_1":"CHL.14_1","NAME_1":"SantiagoMetropolitan","NL_NAME_1":"NA","GID_2":"CHL.14.5_1","NAME_2":"Santiago","NL_NAME_2":"NA","NAME_3":"LaGranja","VARNAME_3":"NA","NL_NAME_3":"NA","TYPE_3":"Comuna","ENGTYPE_3":"Municipality","CC_3":"NA","HASC_3":"NA"},"geometry":{"type":"MultiPolygon","coordinates":[[[[-70.6113,-33.5131],[-70.6097,-33.5262],[-70.6106,-33.5467],[-70.6149,-33.5465],[-70.6122,-33.5556],[-70.6307,-33.5598],[-70.6366,-33.5187],[-70.6273,-33.5177],[-70.6199,-33.5143],[-70.6113,-33.5131]]]]}},{"type":"Feature","properties":{"GID_3":"CHL.14.5.11_1","GID_0":"CHL","COUNTRY":"Chile","GID_1":"CHL.14_1","NAME_1":"SantiagoMetropolitan","NL_NAME_1":"NA","GID_2":"CHL.14.5_1","NAME_2":"Santiago","NL_NAME_2":"NA","NAME_3":"LaPintana","VARNAME_3":"NA","NL_NAME_3":"NA","TYPE_3":"Comuna","ENGTYPE_3":"Municipality","CC_3":"NA","HASC_3":"NA"},"geometry":{"type":"MultiPolygon","coordinates":[[[[-70.6113,-33.5706],[-70.606,-33.602],[-70.6269,-33.6047],[-70.6264,-33.6186],[-70.6287,-33.6278],[-70.6431,-33.6272],[-70.6422,-33.6198],[-70.6443,-33.6196],[-70.6432,-33.6099],[-70.6706,-33.6075],[-70.6549,-33.555],[-70.631,-33.5581],[-70.6307,-33.5598],[-70.6122,-33.5556],[-70.6104,-33.562],[-70.6125,-33.5622],[-70.6113,-33.5706]]]]}},{"type":"Feature","properties":{"GID_3":"CHL.14.5.12_1","GID_0":"CHL","COUNTRY":"Chile","GID_1":"CHL.14_1","NAME_1":"SantiagoMetropolitan","NL_NAME_1":"NA","GID_2":"CHL.14.5_1","NAME_2":"Santiago","NL_NAME_2":"NA","NAME_3":"LaReina","VARNAME_3":"NA","NL_NAME_3":"NA","TYPE_3":"Comuna","ENGTYPE_3":"Municipality","CC_3":"NA","HASC_3":"NA"},"geometry":{"type":"MultiPolygon","coordinates":[[[[-70.5844,-33.4318],[-70.5391,-33.4289],[-70.5379,-33.4334],[-70.523,-33.4316],[-70.516,-33.4351],[-70.5095,-33.4357],[-70.5034,-33.4391],[-70.4962,-33.4467],[-70.4961,-33.4508],[-70.4897,-33.4557],[-70.4869,-33.4618],[-70.5295,-33.4591],[-70.5314,-33.4654],[-70.5404,-33.463],[-70.5626,-33.4624],[-70.5724,-33.459],[-70.5708,-33.4535],[-70.5736,-33.4379],[-70.5844,-33.4318]]]]}},{"type":"Feature","properties":{"GID_3":"CHL.14.5.13_1","GID_0":"CHL","COUNTRY":"Chile","GID_1":"CHL.14_1","NAME_1":"SantiagoMetropolitan","NL_NAME_1":"NA","GID_2":"CHL.14.5_1","NAME_2":"Santiago","NL_NAME_2":"NA","NAME_3":"LasCondes","VARNAME_3":"NA","NL_NAME_3":"NA","TYPE_3":"Comuna","ENGTYPE_3":"Municipality","CC_3":"NA","HASC_3":"NA"},"geometry":{"type":"MultiPolygon","coordinates":[[[[-70.4344,-33.481],[-70.4398,-33.4866],[-70.4521,-33.4825],[-70.4611,-33.4761],[-70.4736,-33.4747],[-70.4865,-33.4632],[-70.4897,-33.4557],[-70.4961,-33.4508],[-70.4962,-33.4467],[-70.5082,-33.4361],[-70.516,-33.4351],[-70.523,-33.4316],[-70.5379,-33.4334],[-70.5391,-33.4289],[-70.5844,-33.4318],[-70.6017,-33.4178],[-70.6079,-33.4155],[-70.6065,-33.4107],[-70.6059,-33.4093],[-70.5866,-33.4042],[-70.5434,-33.3881],[-70.5339,-33.3838],[-70.5249,-33.3759],[-70.5159,-33.372],[-70.4957,-33.367],[-70.4928,-33.3646],[-70.4845,-33.3643],[-70.4785,-33.3663],[-70.4755,-33.3688],[-70.4814,-33.3716],[-70.4837,-33.3778],[-70.4796,-33.3841],[-70.4801,-33.3866],[-70.4772,-33.3917],[-70.4776,-33.3939],[-70.4545,-33.3974],[-70.4531,-33.4175],[-70.4449,-33.4243],[-70.4355,-33.4269],[-70.434,-33.4288],[-70.4309,-33.4387],[-70.4322,-33.4447],[-70.4289,-33.4496],[-70.4281,-33.4582],[-70.4296,-33.4622],[-70.4354,-33.4681],[-70.4334,-33.4734],[-70.4344,-33.481]]]]}},{"type":"Feature","properties":{"GID_3":"CHL.14.5.14_1","GID_0":"CHL","COUNTRY":"Chile","GID_1":"CHL.14_1","NAME_1":"SantiagoMetropolitan","NL_NAME_1":"NA","GID_2":"CHL.14.5_1","NAME_2":"Santiago","NL_NAME_2":"NA","NAME_3":"LoBarnechea","VARNAME_3":"NA","NL_NAME_3":"NA","TYPE_3":"Comuna","ENGTYPE_3":"Municipality","CC_3":"NA","HASC_3":"NA"},"geometry":{"type":"MultiPolygon","coordinates":[[[[-70.5961,-33.3371],[-70.5939,-33.335],[-70.5941,-33.3318],[-70.6,-33.3218],[-70.6003,-33.3167],[-70.6046,-33.3107],[-70.6008,-33.3077],[-70.5962,-33.3084],[-70.591,-33.3031],[-70.5929,-33.2996],[-70.5745,-33.2894],[-70.5707,-33.2786],[-70.5728,-33.2759],[-70.5719,-33.2736],[-70.5733,-33.2719],[-70.5736,-33.2655],[-70.5696,-33.2619],[-70.5675,-33.2565],[-70.5601,-33.252],[-70.562,-33.248],[-70.558,-33.2416],[-70.5463,-33.2411],[-70.5434,-33.2388],[-70.5364,-33.2401],[-70.5242,-33.2389],[-70.5152,-33.231],[-70.5131,-33.2256],[-70.5138,-33.2212],[-70.5097,-33.2193],[-70.5002,-33.2206],[-70.4939,-33.2183],[-70.4833,-33.218],[-70.4732,-33.2196],[-70.4702,-33.2166],[-70.4701,-33.2097],[-70.465,-33.2033],[-70.4678,-33.2013],[-70.4675,-33.1959],[-70.4594,-33.1888],[-70.4595,-33.1823],[-70.4626,-33.1783],[-70.4538,-33.172],[-70.4546,-33.1681],[-70.4445,-33.1592],[-70.4449,-33.1566],[-70.4415,-33.1473],[-70.4367,-33.1443],[-70.4339,-33.1376],[-70.4277,-33.1298],[-70.4218,-33.1279],[-70.4179,-33.1238],[-70.398,-33.1217],[-70.3864,-33.1153],[-70.3829,-33.1094],[-70.3776,-33.1088],[-70.3736,-33.1057],[-70.3613,-33.107],[-70.3454,-33.1035],[-70.3433,-33.1019],[-70.3428,-33.097],[-70.3388,-33.0964],[-70.3339,-33.098],[-70.3295,-33.1021],[-70.3212,-33.1031],[-70.3182,-33.1096],[-70.3105,-33.1085],[-70.3037,-33.113],[-70.2999,-33.1129],[-70.2961,-33.1255],[-70.2908,-33.1306],[-70.2869,-33.132],[-70.2729,-33.1311],[-70.271,-33.1325],[-70.2696,-33.1363],[-70.2711,-33.1543],[-70.2693,-33.1565],[-70.2684,-33.1633],[-70.2652,-33.1668],[-70.2669,-33.1815],[-70.2606,-33.1847],[-70.243,-33.1874],[-70.2398,-33.1922],[-70.2402,-33.1967],[-70.238,-33.2008],[-70.2307,-33.2036],[-70.2262,-33.2114],[-70.2179,-33.2174],[-70.2176,-33.223],[-70.2228,-33.2279],[-70.2231,-33.2317],[-70.2208,-33.2374],[-70.2178,-33.2385],[-70.2143,-33.2371],[-70.2167,-33.2389],[-70.2164,-33.2407],[-70.2082,-33.2501],[-70.2105,-33.2593],[-70.2045,-33.2627],[-70.1984,-33.2715],[-70.2005,-33.2786],[-70.1993,-33.2903],[-70.188,-33.305],[-70.1821,-33.3221],[-70.1821,-33.3381],[-70.1759,-33.3465],[-70.1802,-33.3507],[-70.1773,-33.3565],[-70.1806,-33.3592],[-70.1816,-33.3625],[-70.1869,-33.3631],[-70.1918,-33.3666],[-70.1944,-33.3725],[-70.1934,-33.3767],[-70.1979,-33.3801],[-70.2032,-33.3916],[-70.2133,-33.3958],[-70.2178,-33.4006],[-70.217,-33.407],[-70.219,-33.4123],[-70.2358,-33.4236],[-70.2383,-33.4294],[-70.2412,-33.4309],[-70.2442,-33.4358],[-70.2541,-33.4394],[-70.2576,-33.4437],[-70.2668,-33.4454],[-70.2816,-33.4554],[-70.2853,-33.4524],[-70.2923,-33.451],[-70.2984,-33.4521],[-70.2992,-33.4583],[-70.3047,-33.4645],[-70.315,-33.4666],[-70.3208,-33.4724],[-70.3345,-33.4767],[-70.3407,-33.4846],[-70.3514,-33.4916],[-70.3538,-33.4864],[-70.3611,-33.4872],[-70.3752,-33.4827],[-70.3885,-33.4867],[-70.3937,-33.4907],[-70.403,-33.4895],[-70.4191,-33.4819],[-70.4285,-33.4843],[-70.4296,-33.482],[-70.4344,-33.481],[-70.4334,-33.4734],[-70.4354,-33.4681],[-70.4296,-33.4622],[-70.4281,-33.4582],[-70.4289,-33.4496],[-70.4322,-33.4447],[-70.4309,-33.4387],[-70.434,-33.4288],[-70.4355,-33.4269],[-70.4449,-33.4243],[-70.4531,-33.4175],[-70.4545,-33.3974],[-70.4776,-33.3939],[-70.4772,-33.3917],[-70.4801,-33.3866],[-70.4796,-33.3841],[-70.4837,-33.3778],[-70.4814,-33.3716],[-70.4755,-33.3688],[-70.4765,-33.3674],[-70.4842,-33.3643],[-70.4913,-33.3645],[-70.4957,-33.367],[-70.5176,-33.3727],[-70.5195,-33.3704],[-70.5237,-33.3695],[-70.5406,-33.3703],[-70.5469,-33.3648],[-70.5503,-33.3593],[-70.5603,-33.3585],[-70.5676,-33.3555],[-70.5729,-33.3558],[-70.5761,-33.3526],[-70.5831,-33.3507],[-70.5889,-33.3458],[-70.5914,-33.3392],[-70.5961,-33.3371]]]]}},{"type":"Feature","properties":{"GID_3":"CHL.14.5.15_1","GID_0":"CHL","COUNTRY":"Chile","GID_1":"CHL.14_1","NAME_1":"SantiagoMetropolitan","NL_NAME_1":"NA","GID_2":"CHL.14.5_1","NAME_2":"Santiago","NL_NAME_2":"NA","NAME_3":"LoEspejo","VARNAME_3":"NA","NL_NAME_3":"NA","TYPE_3":"Comuna","ENGTYPE_3":"Municipality","CC_3":"NA","HASC_3":"NA"},"geometry":{"type":"MultiPolygon","coordinates":[[[[-70.6858,-33.539],[-70.7067,-33.5312],[-70.706,-33.5241],[-70.6954,-33.5024],[-70.6712,-33.5107],[-70.6858,-33.539]]]]}},{"type":"Feature","properties":{"GID_3":"CHL.14.5.16_1","GID_0":"CHL","COUNTRY":"Chile","GID_1":"CHL.14_1","NAME_1":"SantiagoMetropolitan","NL_NAME_1":"NA","GID_2":"CHL.14.5_1","NAME_2":"Santiago","NL_NAME_2":"NA","NAME_3":"LoPrado","VARNAME_3":"NA","NL_NAME_3":"NA","TYPE_3":"Comuna","ENGTYPE_3":"Municipality","CC_3":"NA","HASC_3":"NA"},"geometry":{"type":"MultiPolygon","coordinates":[[[[-70.7408,-33.4364],[-70.7289,-33.4364],[-70.7224,-33.4389],[-70.7215,-33.4366],[-70.7071,-33.4381],[-70.7056,-33.4572],[-70.713,-33.4584],[-70.7389,-33.4534],[-70.7408,-33.4364]]]]}},{"type":"Feature","properties":{"GID_3":"CHL.14.5.17_1","GID_0":"CHL","COUNTRY":"Chile","GID_1":"CHL.14_1","NAME_1":"SantiagoMetropolitan","NL_NAME_1":"NA","GID_2":"CHL.14.5_1","NAME_2":"Santiago","NL_NAME_2":"NA","NAME_3":"Macul","VARNAME_3":"NA","NL_NAME_3":"NA","TYPE_3":"Comuna","ENGTYPE_3":"Municipality","CC_3":"NA","HASC_3":"NA"},"geometry":{"type":"MultiPolygon","coordinates":[[[[-70.59,-33.5102],[-70.6137,-33.5084],[-70.623,-33.4749],[-70.5965,-33.4735],[-70.5875,-33.4744],[-70.5768,-33.4702],[-70.5808,-33.49],[-70.5873,-33.5003],[-70.59,-33.5102]]]]}},{"type":"Feature","properties":{"GID_3":"CHL.14.5.18_1","GID_0":"CHL","COUNTRY":"Chile","GID_1":"CHL.14_1","NAME_1":"SantiagoMetropolitan","NL_NAME_1":"NA","GID_2":"CHL.14.5_1","NAME_2":"Santiago","NL_NAME_2":"NA","NAME_3":"Maipú","VARNAME_3":"NA","NL_NAME_3":"NA","TYPE_3":"Comuna","ENGTYPE_3":"Municipality","CC_3":"NA","HASC_3":"NA"},"geometry":{"type":"MultiPolygon","coordinates":[[[[-70.7674,-33.572],[-70.7856,-33.5674],[-70.8046,-33.5509],[-70.816,-33.5437],[-70.8056,-33.5359],[-70.8045,-33.5308],[-70.8078,-33.5283],[-70.8137,-33.5315],[-70.8186,-33.5381],[-70.8431,-33.5342],[-70.852,-33.5378],[-70.8589,-33.5305],[-70.8724,-33.5327],[-70.8866,-33.528],[-70.8924,-33.5204],[-70.8975,-33.5184],[-70.9049,-33.5114],[-70.9105,-33.5094],[-70.921,-33.5115],[-70.9231,-33.5092],[-70.9281,-33.5083],[-70.9301,-33.5058],[-70.9298,-33.5009],[-70.9262,-33.4967],[-70.9235,-33.4895],[-70.9152,-33.4875],[-70.9117,-33.4842],[-70.895,-33.4785],[-70.8781,-33.4766],[-70.8602,-33.4799],[-70.8495,-33.4799],[-70.8411,-33.4671],[-70.8292,-33.4656],[-70.8268,-33.467],[-70.817,-33.4667],[-70.8064,-33.461],[-70.8047,-33.4631],[-70.7966,-33.4631],[-70.7967,-33.4604],[-70.7786,-33.4631],[-70.7772,-33.4629],[-70.7758,-33.4582],[-70.7649,-33.4593],[-70.7635,-33.4638],[-70.7379,-33.4685],[-70.737,-33.4715],[-70.7338,-33.4696],[-70.7228,-33.473],[-70.7247,-33.4827],[-70.7315,-33.4828],[-70.7315,-33.4949],[-70.7401,-33.5101],[-70.7233,-33.51],[-70.7185,-33.5141],[-70.7674,-33.572]]]]}},{"type":"Feature","properties":{"GID_3":"CHL.14.5.19_1","GID_0":"CHL","COUNTRY":"Chile","GID_1":"CHL.14_1","NAME_1":"SantiagoMetropolitan","NL_NAME_1":"NA","GID_2":"CHL.14.5_1","NAME_2":"Santiago","NL_NAME_2":"NA","NAME_3":"Ñuñoa","VARNAME_3":"NA","NL_NAME_3":"NA","TYPE_3":"Comuna","ENGTYPE_3":"Municipality","CC_3":"NA","HASC_3":"NA"},"geometry":{"type":"MultiPolygon","coordinates":[[[[-70.5822,-33.4338],[-70.5736,-33.4379],[-70.5709,-33.4527],[-70.5768,-33.4702],[-70.5875,-33.4744],[-70.5965,-33.4735],[-70.623,-33.4749],[-70.6315,-33.4498],[-70.5992,-33.4447],[-70.5928,-33.4478],[-70.5822,-33.4338]]]]}},{"type":"Feature","properties":{"GID_3":"CHL.14.5.20_1","GID_0":"CHL","COUNTRY":"Chile","GID_1":"CHL.14_1","NAME_1":"SantiagoMetropolitan","NL_NAME_1":"NA","GID_2":"CHL.14.5_1","NAME_2":"Santiago","NL_NAME_2":"NA","NAME_3":"PedroAguirreCerda","VARNAME_3":"NA","NL_NAME_3":"NA","TYPE_3":"Comuna","ENGTYPE_3":"Municipality","CC_3":"NA","HASC_3":"NA"},"geometry":{"type":"MultiPolygon","coordinates":[[[[-70.6954,-33.5024],[-70.6861,-33.4821],[-70.6857,-33.4781],[-70.6717,-33.4785],[-70.6717,-33.4764],[-70.6695,-33.4762],[-70.6551,-33.4767],[-70.6712,-33.5107],[-70.6954,-33.5024]]]]}},{"type":"Feature","properties":{"GID_3":"CHL.14.5.21_1","GID_0":"CHL","COUNTRY":"Chile","GID_1":"CHL.14_1","NAME_1":"SantiagoMetropolitan","NL_NAME_1":"NA","GID_2":"CHL.14.5_1","NAME_2":"Santiago","NL_NAME_2":"NA","NAME_3":"Peñalolén","VARNAME_3":"NA","NL_NAME_3":"NA","TYPE_3":"Comuna","ENGTYPE_3":"Municipality","CC_3":"NA","HASC_3":"NA"},"geometry":{"type":"MultiPolygon","coordinates":[[[[-70.4392,-33.4866],[-70.4379,-33.4922],[-70.444,-33.4925],[-70.4508,-33.4958],[-70.456,-33.4957],[-70.4667,-33.4921],[-70.47,-33.4954],[-70.4772,-33.4955],[-70.4862,-33.5017],[-70.4997,-33.4978],[-70.5009,-33.5004],[-70.5044,-33.4997],[-70.5163,-33.502],[-70.5246,-33.5083],[-70.5399,-33.5123],[-70.59,-33.5102],[-70.5873,-33.5003],[-70.5808,-33.49],[-70.5768,-33.4703],[-70.5723,-33.459],[-70.5623,-33.4625],[-70.5404,-33.463],[-70.5314,-33.4654],[-70.5295,-33.4591],[-70.4869,-33.4618],[-70.4724,-33.4753],[-70.4611,-33.4761],[-70.4469,-33.485],[-70.4392,-33.4866]]]]}},{"type":"Feature","properties":{"GID_3":"CHL.14.5.22_1","GID_0":"CHL","COUNTRY":"Chile","GID_1":"CHL.14_1","NAME_1":"SantiagoMetropolitan","NL_NAME_1":"NA","GID_2":"CHL.14.5_1","NAME_2":"Santiago","NL_NAME_2":"NA","NAME_3":"Providencia","VARNAME_3":"NA","NL_NAME_3":"NA","TYPE_3":"Comuna","ENGTYPE_3":"Municipality","CC_3":"NA","HASC_3":"NA"},"geometry":{"type":"MultiPolygon","coordinates":[[[[-70.5844,-33.4318],[-70.5822,-33.4338],[-70.5928,-33.4478],[-70.5992,-33.4447],[-70.6315,-33.4498],[-70.6362,-33.4308],[-70.6323,-33.4216],[-70.6253,-33.4184],[-70.6168,-33.4103],[-70.6059,-33.4093],[-70.6079,-33.4155],[-70.6017,-33.4178],[-70.5844,-33.4318]]]]}},{"type":"Feature","properties":{"GID_3":"CHL.14.5.23_1","GID_0":"CHL","COUNTRY":"Chile","GID_1":"CHL.14_1","NAME_1":"SantiagoMetropolitan","NL_NAME_1":"NA","GID_2":"CHL.14.5_1","NAME_2":"Santiago","NL_NAME_2":"NA","NAME_3":"Pudahuel","VARNAME_3":"NA","NL_NAME_3":"NA","TYPE_3":"Comuna","ENGTYPE_3":"Municipality","CC_3":"NA","HASC_3":"NA"},"geometry":{"type":"MultiPolygon","coordinates":[[[[-70.9467,-33.3849],[-70.9437,-33.3815],[-70.9235,-33.3755],[-70.909,-33.3683],[-70.8925,-33.3755],[-70.8815,-33.3761],[-70.8751,-33.3735],[-70.8709,-33.3755],[-70.8629,-33.3757],[-70.8385,-33.3851],[-70.837,-33.3824],[-70.8326,-33.3809],[-70.8322,-33.3778],[-70.8295,-33.3762],[-70.8277,-33.3718],[-70.8248,-33.3707],[-70.8212,-33.3631],[-70.8112,-33.3593],[-70.8036,-33.3505],[-70.7566,-33.3838],[-70.7824,-33.4052],[-70.7821,-33.417],[-70.7765,-33.4239],[-70.7721,-33.4257],[-70.7408,-33.4299],[-70.7406,-33.4456],[-70.739,-33.4532],[-70.7313,-33.4549],[-70.7314,-33.4681],[-70.737,-33.4715],[-70.7379,-33.4685],[-70.7635,-33.4638],[-70.7649,-33.4593],[-70.7758,-33.4582],[-70.7784,-33.4631],[-70.7967,-33.4604],[-70.7966,-33.4631],[-70.8047,-33.4631],[-70.8064,-33.461],[-70.817,-33.4667],[-70.8268,-33.467],[-70.8292,-33.4656],[-70.8411,-33.4671],[-70.8495,-33.4799],[-70.8602,-33.4799],[-70.8781,-33.4766],[-70.8919,-33.478],[-70.9117,-33.4842],[-70.9152,-33.4875],[-70.9214,-33.4883],[-70.93,-33.4766],[-70.9373,-33.4756],[-70.9485,-33.4691],[-70.9485,-33.4647],[-70.9507,-33.4622],[-70.9493,-33.4584],[-70.9499,-33.4535],[-70.9549,-33.448],[-70.9543,-33.4382],[-70.9499,-33.4366],[-70.9483,-33.4318],[-70.9468,-33.4172],[-70.9514,-33.413],[-70.9501,-33.4078],[-70.9523,-33.4001],[-70.9489,-33.3925],[-70.9483,-33.3863],[-70.9467,-33.3849]]]]}},{"type":"Feature","properties":{"GID_3":"CHL.14.5.24_1","GID_0":"CHL","COUNTRY":"Chile","GID_1":"CHL.14_1","NAME_1":"SantiagoMetropolitan","NL_NAME_1":"NA","GID_2":"CHL.14.5_1","NAME_2":"Santiago","NL_NAME_2":"NA","NAME_3":"Quilicura","VARNAME_3":"NA","NL_NAME_3":"NA","TYPE_3":"Comuna","ENGTYPE_3":"Municipality","CC_3":"NA","HASC_3":"NA"},"geometry":{"type":"MultiPolygon","coordinates":[[[[-70.7188,-33.3246],[-70.7183,-33.3259],[-70.7083,-33.3227],[-70.7107,-33.319],[-70.6995,-33.3205],[-70.6909,-33.3246],[-70.6894,-33.3286],[-70.6837,-33.3292],[-70.6813,-33.331],[-70.6801,-33.3375],[-70.6872,-33.3423],[-70.6887,-33.3475],[-70.6934,-33.3516],[-70.6893,-33.3662],[-70.7003,-33.3662],[-70.6936,-33.3813],[-70.6947,-33.3817],[-70.6941,-33.3834],[-70.6955,-33.3838],[-70.696,-33.382],[-70.7053,-33.3839],[-70.7112,-33.3912],[-70.7162,-33.3902],[-70.7224,-33.3925],[-70.7271,-33.3912],[-70.7281,-33.3928],[-70.7315,-33.3914],[-70.7369,-33.3937],[-70.7404,-33.3899],[-70.7499,-33.3889],[-70.751,-33.3856],[-70.7688,-33.3763],[-70.8036,-33.3505],[-70.7988,-33.3449],[-70.7979,-33.3385],[-70.7935,-33.3413],[-70.7188,-33.3246]]]]}},{"type":"Feature","properties":{"GID_3":"CHL.14.5.25_1","GID_0":"CHL","COUNTRY":"Chile","GID_1":"CHL.14_1","NAME_1":"SantiagoMetropolitan","NL_NAME_1":"NA","GID_2":"CHL.14.5_1","NAME_2":"Santiago","NL_NAME_2":"NA","NAME_3":"QuintaNormal","VARNAME_3":"NA","NL_NAME_3":"NA","TYPE_3":"Comuna","ENGTYPE_3":"Municipality","CC_3":"NA","HASC_3":"NA"},"geometry":{"type":"MultiPolygon","coordinates":[[[[-70.7215,-33.4366],[-70.7159,-33.4151],[-70.7229,-33.4115],[-70.7125,-33.4078],[-70.704,-33.408],[-70.6944,-33.4139],[-70.6895,-33.419],[-70.6714,-33.4265],[-70.6718,-33.4283],[-70.6771,-33.4268],[-70.6801,-33.4282],[-70.6801,-33.4384],[-70.6818,-33.4386],[-70.6813,-33.4362],[-70.6854,-33.4388],[-70.6916,-33.4395],[-70.6923,-33.4479],[-70.7071,-33.4488],[-70.7071,-33.4381],[-70.7215,-33.4366]]]]}},{"type":"Feature","properties":{"GID_3":"CHL.14.5.26_1","GID_0":"CHL","COUNTRY":"Chile","GID_1":"CHL.14_1","NAME_1":"SantiagoMetropolitan","NL_NAME_1":"NA","GID_2":"CHL.14.5_1","NAME_2":"Santiago","NL_NAME_2":"NA","NAME_3":"Recoleta","VARNAME_3":"NA","NL_NAME_3":"NA","TYPE_3":"Comuna","ENGTYPE_3":"Municipality","CC_3":"NA","HASC_3":"NA"},"geometry":{"type":"MultiPolygon","coordinates":[[[[-70.6581,-33.3991],[-70.6568,-33.3765],[-70.6414,-33.3827],[-70.6106,-33.405],[-70.6121,-33.408],[-70.6168,-33.4103],[-70.6224,-33.4163],[-70.6323,-33.4216],[-70.6361,-33.4296],[-70.6354,-33.4359],[-70.6516,-33.4322],[-70.6501,-33.4177],[-70.6529,-33.4175],[-70.6531,-33.4065],[-70.6572,-33.4053],[-70.6581,-33.3991]]]]}},{"type":"Feature","properties":{"GID_3":"CHL.14.5.27_1","GID_0":"CHL","COUNTRY":"Chile","GID_1":"CHL.14_1","NAME_1":"SantiagoMetropolitan","NL_NAME_1":"NA","GID_2":"CHL.14.5_1","NAME_2":"Santiago","NL_NAME_2":"NA","NAME_3":"Renca","VARNAME_3":"NA","NL_NAME_3":"NA","TYPE_3":"Comuna","ENGTYPE_3":"Municipality","CC_3":"NA","HASC_3":"NA"},"geometry":{"type":"MultiPolygon","coordinates":[[[[-70.7226,-33.4118],[-70.7279,-33.4139],[-70.7365,-33.4123],[-70.7521,-33.4121],[-70.7719,-33.4146],[-70.782,-33.4137],[-70.7825,-33.4062],[-70.7566,-33.3838],[-70.751,-33.3856],[-70.7499,-33.3889],[-70.7404,-33.3899],[-70.7369,-33.3937],[-70.7315,-33.3914],[-70.7281,-33.3928],[-70.7271,-33.3912],[-70.7224,-33.3925],[-70.7162,-33.3902],[-70.7112,-33.3912],[-70.7053,-33.3839],[-70.696,-33.382],[-70.6955,-33.3838],[-70.6936,-33.3813],[-70.6806,-33.4054],[-70.6783,-33.4185],[-70.6712,-33.426],[-70.6892,-33.4192],[-70.6944,-33.4139],[-70.7046,-33.4078],[-70.7125,-33.4078],[-70.7226,-33.4118]]]]}},{"type":"Feature","properties":{"GID_3":"CHL.14.5.28_1","GID_0":"CHL","COUNTRY":"Chile","GID_1":"CHL.14_1","NAME_1":"SantiagoMetropolitan","NL_NAME_1":"NA","GID_2":"CHL.14.5_1","NAME_2":"Santiago","NL_NAME_2":"NA","NAME_3":"SanJoaquín","VARNAME_3":"NA","NL_NAME_3":"NA","TYPE_3":"Comuna","ENGTYPE_3":"Municipality","CC_3":"NA","HASC_3":"NA"},"geometry":{"type":"MultiPolygon","coordinates":[[[[-70.6137,-33.5084],[-70.6113,-33.5131],[-70.6199,-33.5143],[-70.6273,-33.5177],[-70.6366,-33.5187],[-70.6419,-33.4769],[-70.6243,-33.4702],[-70.6137,-33.5084]]]]}},{"type":"Feature","properties":{"GID_3":"CHL.14.5.29_1","GID_0":"CHL","COUNTRY":"Chile","GID_1":"CHL.14_1","NAME_1":"SantiagoMetropolitan","NL_NAME_1":"NA","GID_2":"CHL.14.5_1","NAME_2":"Santiago","NL_NAME_2":"NA","NAME_3":"SanMiguel","VARNAME_3":"NA","NL_NAME_3":"NA","TYPE_3":"Comuna","ENGTYPE_3":"Municipality","CC_3":"NA","HASC_3":"NA"},"geometry":{"type":"MultiPolygon","coordinates":[[[[-70.6446,-33.5174],[-70.6712,-33.5107],[-70.6551,-33.4767],[-70.6419,-33.4769],[-70.6366,-33.5187],[-70.6446,-33.5174]]]]}},{"type":"Feature","properties":{"GID_3":"CHL.14.5.30_1","GID_0":"CHL","COUNTRY":"Chile","GID_1":"CHL.14_1","NAME_1":"SantiagoMetropolitan","NL_NAME_1":"NA","GID_2":"CHL.14.5_1","NAME_2":"Santiago","NL_NAME_2":"NA","NAME_3":"SanRamón","VARNAME_3":"NA","NL_NAME_3":"NA","TYPE_3":"Comuna","ENGTYPE_3":"Municipality","CC_3":"NA","HASC_3":"NA"},"geometry":{"type":"MultiPolygon","coordinates":[[[[-70.6547,-33.555],[-70.6446,-33.5174],[-70.6366,-33.5187],[-70.631,-33.5581],[-70.6547,-33.555]]]]}},{"type":"Feature","properties":{"GID_3":"CHL.14.5.31_1","GID_0":"CHL","COUNTRY":"Chile","GID_1":"CHL.14_1","NAME_1":"SantiagoMetropolitan","NL_NAME_1":"NA","GID_2":"CHL.14.5_1","NAME_2":"Santiago","NL_NAME_2":"NA","NAME_3":"Santiago","VARNAME_3":"NA","NL_NAME_3":"NA","TYPE_3":"Comuna","ENGTYPE_3":"Municipality","CC_3":"NA","HASC_3":"NA"},"geometry":{"type":"MultiPolygon","coordinates":[[[[-70.6809,-33.4785],[-70.6808,-33.4765],[-70.672,-33.4758],[-70.6729,-33.4706],[-70.6801,-33.4707],[-70.6778,-33.4509],[-70.679,-33.4507],[-70.6796,-33.4439],[-70.6918,-33.4445],[-70.6911,-33.4392],[-70.6854,-33.4388],[-70.6813,-33.4362],[-70.6818,-33.4386],[-70.6801,-33.4384],[-70.6799,-33.4279],[-70.6771,-33.4268],[-70.6718,-33.4283],[-70.6714,-33.4265],[-70.6354,-33.4359],[-70.6249,-33.4703],[-70.6406,-33.4767],[-70.6695,-33.4762],[-70.6717,-33.4764],[-70.6717,-33.4785],[-70.6809,-33.4785]]]]}},{"type":"Feature","properties":{"GID_3":"CHL.14.5.32_1","GID_0":"CHL","COUNTRY":"Chile","GID_1":"CHL.14_1","NAME_1":"SantiagoMetropolitan","NL_NAME_1":"NA","GID_2":"CHL.14.5_1","NAME_2":"Santiago","NL_NAME_2":"NA","NAME_3":"Vitacura","VARNAME_3":"NA","NL_NAME_3":"NA","TYPE_3":"Comuna","ENGTYPE_3":"Municipality","CC_3":"NA","HASC_3":"NA"},"geometry":{"type":"MultiPolygon","coordinates":[[[[-70.6106,-33.405],[-70.6085,-33.3969],[-70.6015,-33.3885],[-70.6039,-33.3829],[-70.6002,-33.379],[-70.5973,-33.3658],[-70.6011,-33.3627],[-70.5926,-33.3555],[-70.5873,-33.3545],[-70.5825,-33.351],[-70.5761,-33.3526],[-70.5729,-33.3558],[-70.5676,-33.3555],[-70.5603,-33.3585],[-70.5503,-33.3593],[-70.5469,-33.3648],[-70.5406,-33.3703],[-70.5237,-33.3695],[-70.5195,-33.3704],[-70.5176,-33.3728],[-70.5271,-33.3771],[-70.5339,-33.3838],[-70.5866,-33.4042],[-70.5997,-33.4083],[-70.6145,-33.4092],[-70.6106,-33.405]]]]}},{"type":"Feature","properties":{"GID_3":"CHL.14.6.1_1","GID_0":"CHL","COUNTRY":"Chile","GID_1":"CHL.14_1","NAME_1":"SantiagoMetropolitan","NL_NAME_1":"NA","GID_2":"CHL.14.6_1","NAME_2":"Talagante","NL_NAME_2":"NA","NAME_3":"ElMonte","VARNAME_3":"NA","NL_NAME_3":"NA","TYPE_3":"Comuna","ENGTYPE_3":"Municipality","CC_3":"NA","HASC_3":"NA"},"geometry":{"type":"MultiPolygon","coordinates":[[[[-71.1027,-33.7054],[-71.1008,-33.6926],[-71.1171,-33.6826],[-71.1057,-33.6854],[-71.0979,-33.6342],[-71.0896,-33.633],[-71.0834,-33.6278],[-71.0736,-33.6284],[-71.0684,-33.6315],[-71.0626,-33.6325],[-71.0596,-33.638],[-71.0487,-33.6365],[-71.0414,-33.6389],[-71.036,-33.6429],[-71.0335,-33.6409],[-71.0321,-33.6329],[-71.029,-33.6278],[-71.0151,-33.6272],[-71.0108,-33.6253],[-71.0022,-33.6152],[-70.9948,-33.6137],[-70.9877,-33.6166],[-70.9776,-33.618],[-70.9723,-33.6231],[-70.9679,-33.6241],[-70.9665,-33.6326],[-70.9608,-33.6449],[-70.9558,-33.6517],[-70.9358,-33.6593],[-70.937,-33.6633],[-70.9459,-33.6673],[-70.9513,-33.6677],[-70.9569,-33.6723],[-70.9673,-33.6758],[-70.9861,-33.6884],[-70.9927,-33.689],[-70.9984,-33.6926],[-71.0039,-33.6933],[-71.0059,-33.697],[-71.0109,-33.6992],[-71.0132,-33.7051],[-71.0178,-33.7058],[-71.0222,-33.7088],[-71.0254,-33.7122],[-71.0262,-33.7163],[-71.0314,-33.7197],[-71.0423,-33.7157],[-71.0464,-33.716],[-71.0522,-33.7191],[-71.0682,-33.7218],[-71.0781,-33.7206],[-71.0884,-33.7158],[-71.0973,-33.7077],[-71.1027,-33.7054]]]]}},{"type":"Feature","properties":{"GID_3":"CHL.14.6.2_1","GID_0":"CHL","COUNTRY":"Chile","GID_1":"CHL.14_1","NAME_1":"SantiagoMetropolitan","NL_NAME_1":"NA","GID_2":"CHL.14.6_1","NAME_2":"Talagante","NL_NAME_2":"NA","NAME_3":"IsladeMaipo","VARNAME_3":"NA","NL_NAME_3":"NA","TYPE_3":"Comuna","ENGTYPE_3":"Municipality","CC_3":"NA","HASC_3":"NA"},"geometry":{"type":"MultiPolygon","coordinates":[[[[-70.8211,-33.7542],[-70.8287,-33.7648],[-70.8338,-33.7656],[-70.8373,-33.769],[-70.8389,-33.7742],[-70.8584,-33.7875],[-70.8626,-33.7948],[-70.8774,-33.8039],[-70.8911,-33.8012],[-70.8963,-33.8036],[-70.9009,-33.8032],[-70.9053,-33.7965],[-70.9039,-33.789],[-70.9057,-33.7797],[-70.9122,-33.7672],[-70.9124,-33.7747],[-70.9179,-33.7885],[-70.9166,-33.7913],[-70.9179,-33.7963],[-70.9225,-33.8008],[-70.9493,-33.7979],[-70.9617,-33.7939],[-70.9807,-33.7995],[-70.9821,-33.7945],[-70.9811,-33.7797],[-70.9832,-33.7747],[-70.9877,-33.7768],[-70.9932,-33.7757],[-70.9971,-33.7784],[-71.0067,-33.7722],[-71.0179,-33.7714],[-71.0258,-33.7645],[-71.0353,-33.7615],[-71.0399,-33.7558],[-71.0502,-33.7533],[-71.0641,-33.7535],[-71.0686,-33.7555],[-71.0783,-33.7565],[-71.092,-33.7479],[-71.1106,-33.7441],[-71.1193,-33.7399],[-71.1205,-33.7329],[-71.1193,-33.7296],[-71.1097,-33.7236],[-71.1066,-33.7197],[-71.0972,-33.7158],[-71.0957,-33.711],[-71.1003,-33.7086],[-71.1027,-33.7054],[-71.0973,-33.7077],[-71.0884,-33.7158],[-71.0781,-33.7206],[-71.0682,-33.7218],[-71.0522,-33.7191],[-71.0464,-33.716],[-71.0423,-33.7157],[-71.0314,-33.7197],[-71.0262,-33.7163],[-71.0222,-33.7162],[-71.0044,-33.72],[-70.9975,-33.7233],[-70.9897,-33.724],[-70.982,-33.7182],[-70.9752,-33.7157],[-70.9618,-33.7163],[-70.9556,-33.7142],[-70.9363,-33.7197],[-70.923,-33.7166],[-70.9159,-33.7166],[-70.9156,-33.7143],[-70.8995,-33.6965],[-70.8491,-33.7148],[-70.8461,-33.7093],[-70.843,-33.7088],[-70.8338,-33.7146],[-70.8305,-33.7189],[-70.8243,-33.7211],[-70.8213,-33.727],[-70.8205,-33.737],[-70.8217,-33.7398],[-70.825,-33.7415],[-70.8261,-33.7486],[-70.8211,-33.7542]]]]}},{"type":"Feature","properties":{"GID_3":"CHL.14.6.3_1","GID_0":"CHL","COUNTRY":"Chile","GID_1":"CHL.14_1","NAME_1":"SantiagoMetropolitan","NL_NAME_1":"NA","GID_2":"CHL.14.6_1","NAME_2":"Talagante","NL_NAME_2":"NA","NAME_3":"PadreHurtado","VARNAME_3":"NA","NL_NAME_3":"NA","TYPE_3":"Comuna","ENGTYPE_3":"Municipality","CC_3":"NA","HASC_3":"NA"},"geometry":{"type":"MultiPolygon","coordinates":[[[[-70.7787,-33.5692],[-70.7887,-33.5783],[-70.7981,-33.5733],[-70.8086,-33.5937],[-70.8111,-33.5962],[-70.8142,-33.5935],[-70.8191,-33.5986],[-70.835,-33.5857],[-70.8321,-33.5836],[-70.8335,-33.5824],[-70.8478,-33.581],[-70.8495,-33.5769],[-70.8564,-33.5757],[-70.8684,-33.5754],[-70.8786,-33.5836],[-70.8814,-33.5807],[-70.8864,-33.5831],[-70.8877,-33.5813],[-70.8923,-33.5859],[-70.8936,-33.5899],[-70.8988,-33.5877],[-70.9201,-33.5856],[-70.9293,-33.5887],[-70.9354,-33.5881],[-70.9357,-33.5838],[-70.9373,-33.5823],[-70.9366,-33.5771],[-70.9433,-33.5722],[-70.9488,-33.5645],[-70.9484,-33.5606],[-70.9381,-33.5552],[-70.9358,-33.5512],[-70.933,-33.5504],[-70.9293,-33.5463],[-70.9265,-33.5375],[-70.9269,-33.5339],[-70.923,-33.5244],[-70.9228,-33.518],[-70.9198,-33.5143],[-70.9197,-33.5113],[-70.9105,-33.5094],[-70.9049,-33.5114],[-70.8975,-33.5184],[-70.8927,-33.52],[-70.8866,-33.528],[-70.8724,-33.5327],[-70.8589,-33.5305],[-70.852,-33.5378],[-70.8431,-33.5342],[-70.8186,-33.5381],[-70.8137,-33.5315],[-70.8078,-33.5283],[-70.8045,-33.5308],[-70.8056,-33.5359],[-70.816,-33.5437],[-70.8046,-33.5509],[-70.7856,-33.5674],[-70.7787,-33.5692]]]]}},{"type":"Feature","properties":{"GID_3":"CHL.14.6.4_1","GID_0":"CHL","COUNTRY":"Chile","GID_1":"CHL.14_1","NAME_1":"SantiagoMetropolitan","NL_NAME_1":"NA","GID_2":"CHL.14.6_1","NAME_2":"Talagante","NL_NAME_2":"NA","NAME_3":"Peñaflor","VARNAME_3":"NA","NL_NAME_3":"NA","TYPE_3":"Comuna","ENGTYPE_3":"Municipality","CC_3":"NA","HASC_3":"NA"},"geometry":{"type":"MultiPolygon","coordinates":[[[[-70.8191,-33.5986],[-70.8253,-33.6108],[-70.8457,-33.6339],[-70.8495,-33.6362],[-70.8737,-33.6315],[-70.912,-33.6363],[-70.9138,-33.6407],[-70.9318,-33.639],[-70.9346,-33.6407],[-70.9352,-33.6459],[-70.9497,-33.6462],[-70.962,-33.6419],[-70.9667,-33.6321],[-70.9679,-33.6241],[-70.9638,-33.6219],[-70.9557,-33.6132],[-70.9545,-33.6049],[-70.9523,-33.6015],[-70.9498,-33.5987],[-70.9458,-33.5982],[-70.9375,-33.5933],[-70.9354,-33.5881],[-70.9293,-33.5887],[-70.9201,-33.5856],[-70.8988,-33.5877],[-70.8936,-33.5899],[-70.8923,-33.5859],[-70.8877,-33.5813],[-70.8864,-33.5831],[-70.8814,-33.5807],[-70.8786,-33.5836],[-70.8684,-33.5754],[-70.8564,-33.5757],[-70.8495,-33.5769],[-70.8478,-33.581],[-70.8335,-33.5824],[-70.8321,-33.5836],[-70.835,-33.5857],[-70.8191,-33.5986]]]]}},{"type":"Feature","properties":{"GID_3":"CHL.14.6.5_1","GID_0":"CHL","COUNTRY":"Chile","GID_1":"CHL.14_1","NAME_1":"SantiagoMetropolitan","NL_NAME_1":"NA","GID_2":"CHL.14.6_1","NAME_2":"Talagante","NL_NAME_2":"NA","NAME_3":"Talagante","VARNAME_3":"NA","NL_NAME_3":"NA","TYPE_3":"Comuna","ENGTYPE_3":"Municipality","CC_3":"NA","HASC_3":"NA"},"geometry":{"type":"MultiPolygon","coordinates":[[[[-70.8495,-33.6362],[-70.8671,-33.6506],[-70.8363,-33.6625],[-70.8185,-33.6424],[-70.8117,-33.6446],[-70.811,-33.6529],[-70.808,-33.6606],[-70.8024,-33.6676],[-70.8035,-33.6721],[-70.8015,-33.6733],[-70.7991,-33.6803],[-70.7956,-33.6835],[-70.7961,-33.6877],[-70.7914,-33.696],[-70.799,-33.7074],[-70.8043,-33.7117],[-70.8064,-33.7202],[-70.8098,-33.7222],[-70.8128,-33.7227],[-70.8184,-33.7198],[-70.8244,-33.721],[-70.8298,-33.7193],[-70.8338,-33.7146],[-70.843,-33.7088],[-70.8461,-33.7093],[-70.8491,-33.7148],[-70.8995,-33.6965],[-70.9156,-33.7143],[-70.9154,-33.7164],[-70.9264,-33.7172],[-70.933,-33.7194],[-70.9377,-33.7196],[-70.9556,-33.7142],[-70.9618,-33.7163],[-70.9752,-33.7157],[-70.982,-33.7182],[-70.9903,-33.7241],[-70.9981,-33.7231],[-71.0026,-33.7206],[-71.0175,-33.7168],[-71.0262,-33.7163],[-71.0254,-33.7122],[-71.0222,-33.7088],[-71.0178,-33.7058],[-71.0132,-33.7051],[-71.0109,-33.6992],[-71.0059,-33.697],[-71.0039,-33.6933],[-70.9984,-33.6926],[-70.9927,-33.689],[-70.9861,-33.6884],[-70.9673,-33.6758],[-70.9569,-33.6723],[-70.9513,-33.6677],[-70.9459,-33.6673],[-70.9366,-33.663],[-70.9367,-33.6586],[-70.9558,-33.6517],[-70.9608,-33.6449],[-70.9608,-33.6428],[-70.9497,-33.6462],[-70.9355,-33.646],[-70.9346,-33.6407],[-70.9318,-33.639],[-70.9138,-33.6407],[-70.912,-33.6363],[-70.8737,-33.6315],[-70.8495,-33.6362]]]]}}]}